,ID,Name,Park Code,Latitude,Longitude,Number Of Sites Reservable,Number Of Sites First Come First Serve,Accessibility Classifications,Cost,Zip,City
0,EA81BC45-C361-437F-89B8-5C89FB0D0F86,277 North Campground,amis,29.51237369550921,-100.90816633365614,1,17,['Limited Development Campground'],6.0,,
1,1241C56B-7003-4FDF-A449-29DA8BCB0A41,Abrams Creek Campground,grsm,35.61074664664336,-83.93318327404131,16,0,['Developed Campground'],30.0,37878,Tallassee
2,ABDC6E2A-9959-4A4C-9DB6-EEF66E7C95B8,Adirondack Shelters,cato,39.67775041640082,-77.48462720159597,2,0,['Primitive Camping Areas'],10.0,21788,Thurmont
3,4F9ED6A5-3ED1-443D-9E4C-859D7988F199,Afterbay Campground,bica,45.315438210045016,-107.94165891102676,22,0,['Limited Development Campground'],35.0,59035,Fort Smith
4,9FAE941D-D7E8-4F36-A28F-8556628242BA,Akers Group Campground,ozar,37.3764551871,-91.5615463252,4,4,['Designated Primitive Campsites'],65.0,65466,Eminence
5,6EAB2A34-0D56-4A15-99E2-E41C06B0FF86,Alamo Canyon Campground,orpi,32.072943,-112.728093,4,0,['Limited Development Campground'],16.0,85321,Ajo
6,AB15EC6C-7761-4DFF-A4AC-38E6A9986FB7,Alley Spring Campground,ozar,37.148223,-91.449767,102,62,['Developed Campground'],30.0,65466,Eminence
7,4F9E59DF-BFCB-400F-8F4E-6A5233A47324,Alum Ford Campground,biso,36.764033745775,-84.5463375728999,0,6,['Limited Development Campground'],5.0,42653,Whitley City
8,B0B25595-CE24-4E9C-B0CD-93912216F113,American Memorial Park,amme,,,0,0,[],,96950,Saipan
9,E7CC7363-9C34-42ED-B3F0-769BB39E9400,Anacapa Island Campground,chis,34.0143426535482,-119.367763068282,7,0,['Designated Primitive Campsites'],15.0,93001,Anacapa Island
10,3CCB0AF7-A364-4490-A788-EE00700BD108,Antelope Point RV Park,glca,36.956030575674106,-111.43123626708984,104,0,[],,,
11,03608E50-3CA0-4AEA-9E6C-146FBD6D204B,Antietam Creek Campground,choh,39.42110917600782,-77.74884282038619,20,0,[],20.0,,
12,48F2732E-4251-4D81-875C-8E52839620B5,Apgar Campground,glac,48.5260810439,-113.981860185,188,0,['Developed Campground'],23.0,59936,West Glacier
13,18D6C184-E9BB-4590-93FF-09CE0210C13A,Army Camp,neri,37.85814480804737,-81.09902510804346,0,11,['Primitive Camping Areas'],0.0,25907,Prince
14,7475825B-E844-4012-841B-0E29E05D4540,Aspenglen Campground,romo,40.39934770583215,-105.59305451637942,0,27,['Developed Campground'],30.0,80517,Estes Park
15,BC707FA3-F575-4734-8E62-34689982F615,Atwell Mill Campground,seki,36.46466811721671,-118.66967218821418,21,21,['Designated Primitive Campsites'],28.0,93271,Sequoia National Park
16,18436909-D300-44A7-BD73-553AF16E576E,Au Sable East Group Backpacking Site,piro,46.670375,-86.13682,1,0,[],5.0,,
17,F3ED602F-ECEE-4C10-9FBF-299331032221,Au Sable East Individual Backpacking Sites,piro,46.669327,-86.135215,6,0,[],5.0,,
18,2DEFC258-0088-4E21-B429-7B7014B09060,Avalanche,glac,48.67654586358507,-113.81852507945598,87,0,['Developed Campground'],20.0,59936,West Glacier
19,D82D2D01-80E6-4394-BEC0-C41ECAC12798,Azalea Campground,seki,36.74133435099185,-118.96777677730648,110,0,['Developed Campground'],28.0,93633,Grant Grove
20,43CF9CC2-4B3F-496F-9587-26F98A454217,Back Country Camping - Green Run,asis,38.0799522999743,-75.2135101005224,1,1,['Primitive Camping Areas'],10.0,21811,Berlin
21,8540D911-6CCA-4DD7-A515-34A3939BABFE,Back Country Camping - Little Levels,asis,38.1521378003843,-75.1727157999991,0,1,['Designated Primitive Campsites'],10.0,,
22,BEAF9758-4BAB-4FE7-A6C0-7336362BDE42,Back Country Camping - Pine Tree,asis,38.1432381002,-75.1883865003,0,1,['Primitive Camping Areas'],10.0,21811,Berlin
23,FB37FF71-E7EE-4B25-8117-842784111EEC,Back Country Camping - Pope Bay,asis,38.0477905997415,-75.2341248002154,1,1,['Designated Primitive Campsites'],10.0,21811,Berlin
24,B238585C-BEFC-446C-B433-F785D295873E,Back Country Camping - State Line,asis,38.04472,-75.23139,0,1,['Designated Primitive Campsites'],10.0,,
25,B9AF19E6-8B7F-482F-AFB7-E606FFD4BA4E,Back Country Camping - Tingles Island,asis,38.1777120008,-75.1754320001,0,1,['Designated Primitive Campsites'],10.0,21811,Berlin
26,9E0AF4C5-2100-427F-AF7D-D8653FBF3FA5,Backcountry Camping,whsa,32.809869,-106.264225,0,10,['Designated Primitive Campsites'],3.0,88310,Alamogordo
27,07B94648-198D-4762-9D87-236DEC0C58BA,Backcountry Camping,care,,,0,0,[],,84775,Torrey
28,AC81EBCF-B50B-420E-A286-13C67EE98B4F,Backcountry Camping in the Otis Pike High Dune Wilderness,fiis,40.6961609,-72.9719285,36,36,[],20.0,,
29,9FA0E6D0-85F3-4388-92B1-26F408774F28,Backpacking Campsites in the Dunes or Forest,grsa,37.77724,-105.535601,27,0,['Primitive Camping Areas'],6.0,81146,Mosca
30,0131994D-CB80-4736-A362-A5ECF862337B,Baker Creek Campground,grba,38.98573,-114.24331,0,37,['Developed Campground'],20.0,,
31,E02FF569-7F16-4A73-B44F-2A2211C98513,Bald Eagle Island Hiker-Biker Campsite,choh,39.299834,-77.557168,0,1,['Primitive Camping Areas'],0.0,20176,Lander
32,E3D6E089-3B10-46E0-91C8-F7A5C7BBE409,Balsam Mountain Campground,grsm,35.56543624633261,-83.17429877302192,43,0,['Developed Campground'],30.0,37738,Gatlinburg
33,09BC0AFC-F118-44EA-B7E1-1FE0191CA77E,Bandy Creek Campground,biso,36.4886610474,-84.6971229739,146,149,['Developed Campground'],32.0,37841,Oneida
34,4EAF0F61-6361-4CAC-BB23-F93C5CF4A8E2,Barry's Landing & Trail Creek Campground,bica,45.10441282728944,-108.22557108412536,1,30,['Limited Development Campground'],18.0,82413,Lovell
35,8F8394D7-51F5-4593-9042-83BC845F0F71,Bartlett Cove Campground,glba,58.450780888,-135.894400288,0,33,['Limited Development Campground'],0.0,99826,Bartlett Cove
36,6EEB6398-2024-46B2-BFA0-B2A437464B37,Bay Campground - South Manitou Island,slbe,45.018882,-86.102772,3,25,['Designated Primitive Campsites'],10.0,49630,Empire
37,700E6BD8-F6CA-4A1A-A361-CFEAF028902A,Bayside Drive-in Campground,asis,38.20773710057431,-75.1593790997531,22,0,['Limited Development Campground'],40.0,21811,Berlin
38,88FE257F-E2CF-45DC-858E-7DF1B92AFF4F,Bear Creek Campground,biso,36.64236974564744,-84.52438967444022,22,22,['Developed Campground'],28.0,42649,Strunk
39,CF03117B-0727-4497-885A-0C81227D2F11,Bear Island Campground,bicy,26.183239748193,-81.247475274331,40,0,['Limited Development Campground'],10.0,34141,Ochopee
40,7108D5E4-1BE3-42A7-846A-7BF3C631E8E9,Beaver Creek Individual Backpacking Sites,piro,46.577012,-86.350163,6,0,[],5.0,,
41,D3397636-7BAA-419B-A634-9C53D6AD7E55,Beaver Island Campground,isro,47.90406144441624,-89.1743364694965,0,3,['Limited Development Campground'],0.0,49931,Houghton
42,7E99AF3C-193D-4F89-8AA3-A799590CB89C,Beehives Campground,glca,36.938243,-111.496291,0,6,['Designated Primitive Campsites'],14.0,86040,Page
43,07E7E764-4D4F-4615-ADEB-28AB6BD87471,Belle Campground,jotr,34.00193734907302,-116.01976203151656,0,18,['Limited Development Campground'],15.0,92277,Twentynine Palms
44,BCFEC04A-6E92-4CC5-844F-B0486E386268,Belle Fourche River Campground,deto,44.58183403582838,-104.70634354706146,0,46,['Developed Campground'],20.0,82714,Devils Tower
45,4E13DA78-AC48-422A-A82B-444BF0F46C37,Belle Isle Campground,isro,48.15235177620953,-88.58598760529463,0,7,['Limited Development Campground'],0.0,49931,Houghton
46,B0B0CF0A-F97A-4DA8-AC53-B72516E0B248,Benchmark Individual Backpacking Sites,piro,46.647014,-86.200461,6,0,[],5.0,,
47,2AFC7456-747A-4F35-8572-418E6E103989,Bicentennial Campground,goga,37.824572114428165,-122.52672546997375,3,0,['Limited Development Campground'],25.0,94965,Sausalito
48,559F6C6D-8688-4269-9578-86DE30B01674,Big Creek Campground,grsm,35.75007764619811,-83.11138107344533,12,0,['Developed Campground'],30.0,37821,Newport
49,75E4DC88-1332-456C-9F06-05E9F4E1CAB6,Big Meadows Campground,shen,38.5279623,-78.4369404,220,0,['Developed Campground'],75.0,22851,Robertson
50,CC6D39E3-EA7C-4E86-BBD8-3847DD3CF539,Big Seboeis Campsite,kaww,45.932131,-68.635802,0,1,['Designated Primitive Campsites'],0.0,,
51,A873A126-9BD6-4979-8FA2-9692AB909A9E,Big Spring Brook Campsite,kaww,46.0287936106,-68.7256877275,0,1,['Designated Primitive Campsites'],0.0,,
52,1CE97109-25B0-4A15-B4B9-3525EF22C1C5,Big Spring Brook Hut,kaww,46.0341848574,-68.7742320868,1,0,['Primitive Camping Areas'],0.0,04765,Patten
53,01F1984D-7345-4D6B-A6C6-D4565B7FBC57,Big Spring Campground,ozar,36.96099384748342,-90.9858695144698,54,56,['Developed Campground'],30.0,63965,Van Buren
54,26A77456-D7A5-4CD2-8F28-96B3679085C7,Big Woods Hiker-Biker Campsite,choh,39.492868,-77.792591,0,1,['Designated Primitive Campsites'],0.0,21782,Mercersville
55,33204668-CC4F-4F22-8041-CE65C86B47F7,Birch Island Campground,isro,48.110107730247336,-88.68562291855892,0,2,['Limited Development Campground'],0.0,49931,Houghton
56,C4CB1781-C59F-4065-AFE3-F7A327B075A2,Bird Island Basin Campground,pais,27.466794,-97.313693,0,34,['Primitive Camping Areas'],8.0,78418,Corpus Christi
57,A1C3F421-F571-4448-B105-EA5DE06AB1AB,Black Canyon Campground,bica,45.25091802928579,-107.96260372030032,0,17,['Designated Primitive Campsites'],0.0,59035,Fort Smith
58,BF423B82-7FE4-4101-B86D-9FE12E2315B4,Black Canyon Group and Equestrian Campground,moja,35.0486255634,-115.382956823,2,0,['Limited Development Campground'],25.0,92311,Barstow
59,33AA5642-343E-425B-89E9-69A0918A8502,Black Rock Campground,jotr,34.07298223672509,-116.3914968031272,99,0,['Developed Campground'],25.0,,
60,6E127BF1-F2A9-4C59-90FA-C4BED53EA7F5,Blackwoods Campground,acad,44.30894404258141,-68.20988547018771,281,0,['Developed Campground'],60.0,04660,Otter Creek
61,A7E4AEDA-09DB-4E57-A6C0-615867B8A299,Blue Creek,lamr,35.7230720210905,-101.663841251126,0,50,['Primitive Camping Areas'],0.0,79036,Fritch
62,78C8F7E4-CDD1-475C-A540-5EA8E22B1CAC,Blue Heron Campground,biso,36.6775354458249,-84.5185055731685,43,45,['Developed Campground'],20.0,42649,Strunk
63,7B17E712-1EA9-4FE8-A8B2-B677ED81B385,Blue Ridge Wilderness Campground,gumo,31.94825872757042,-104.87174820889072,5,0,['Designated Primitive Campsites'],6.0,,
64,7461D94E-67E8-4C2B-BEFF-B93174B8CE06,Blue West Campground,lamr,35.682455887,-101.628561851,0,30,['Primitive Camping Areas'],0.0,,
65,289944B3-8869-44CF-BCAC-192CA620B028,Bluff Campground,cong,33.83230624616456,-80.81488727320112,6,6,['Primitive Camping Areas'],10.0,,
66,3974D96D-C28E-4A4B-8CCA-4C0C4747C420,Boca Chita Campground,bisc,25.5231,-80.1746,0,60,['Limited Development Campground'],35.0,33033,Homestead
67,8D97B7B6-3DB4-4355-8755-2248F20D2E30,Bonita Canyon Campground,chir,32.0115507156,-109.355060216,26,0,['Developed Campground'],20.0,,
68,D0B26144-86D6-4F31-9296-4455BA0A3DDB,Boulder Beach Campground (Lake Mead),lake,36.03695032969844,-114.80191660139091,126,9,['Developed Campground'],20.0,89005,Boulder City
69,726B4856-7914-4952-BF9F-C3D48D0E5712,Boulder Beach Group Campground (Lake Mead),lake,36.03752520072463,-114.8025731005672,5,0,['Developed Campground'],80.0,89005,Boulder City
70,EED1CD77-7B8F-478E-89C3-466C44B2D047,Bow Creek Primitive Camping,mnrr,42.7776,-97.1481,0,5,['Primitive Camping Areas'],0.0,,
71,03CC7ABA-0A4F-4F74-96B8-317F981E3B8E,Bowman Lake,glac,48.82904649538723,-114.2031303790302,0,48,['Limited Development Campground'],15.0,59936,West Glacier
72,3EC422D6-D669-4C88-B906-EE5BB4DA2C21,Brandy Creek,whis,40.6014296703,-122.582337507,2,0,['Limited Development Campground'],20.0,96095,Whiskeytown
73,520460C8-4CDF-4642-BABF-422217A7830D,Brandy Creek RV,whis,40.61705,-122.57476,32,32,['Limited Development Campground'],20.0,96095,Whiskeytown
74,530F6E66-6603-41A9-AC88-6E8750923E1A,Brickhill Bluff Wilderness Campsite,cuis,30.8945,-81.444,4,0,[],9.0,,
75,58B9591C-4723-4049-B26C-D30C07A6FAD6,Bridalveil Creek Campground,yose,37.6636576342436,-119.624293366359,116,0,['Developed Campground'],36.0,,
76,1A5B19B8-BF1F-4803-8D87-2D4091D59A4D,Bridge Bay Campground,yell,44.534437749236,-110.436923682403,432,0,['Developed Campground'],33.0,82190,Yellowstone National Park
77,66473DAA-0E97-47DE-A5AD-F52B0DFF4E88,Brooklyn Campground,neri,37.984096,-81.027881,0,5,['Primitive Camping Areas'],0.0,25830,Cunard
78,CE630927-F34B-4A58-BD8E-D4ED74E8EDCA,Brooks Camp Campground,katm,58.5597862997626,-155.777534811051,60,0,['Limited Development Campground'],18.0,99613,King Salmon
79,6BCF7F8D-71B1-4B29-A925-5DCFDD0CB38E,Buckeye Flat Campground,seki,36.52243302377206,-118.76410649285587,27,0,['Limited Development Campground'],28.0,93271,Sequoia National Park
80,9607DA82-8507-4D92-A3DB-5FE81E4CD5C8,Buckhorn Campground Loop A,chic,34.4296702499,-96.9881113658,0,19,['Developed Campground'],16.0,,
81,90EF147D-A958-4C60-9414-193FC048A66C,Buckhorn Campground Loop B,chic,34.4271613463,-96.9920669817,0,25,['Developed Campground'],16.0,,
82,FFC17012-1267-43CF-B294-D56FD7F89E47,Buckhorn Campground Loop C,chic,34.4330928671,-96.9968411343,41,0,['Developed Campground'],16.0,,
83,E7B327F1-7369-40B6-BC6D-35221C41F9D6,Buckhorn Campground Loop D,chic,34.432766546,-96.9974819194,0,48,['Developed Campground'],16.0,,
84,5AA6174E-B53C-46F7-9F7B-CC275DD91CBC,Buffalo Point Campground,buff,36.0715554992,-92.5555762993,56,45,['Developed Campground'],30.0,72687,Yellville
85,DAC620D3-F276-4073-9DBF-0815C1A74BBA,Bugbee Canyon,lamr,35.7248098991,-101.5901470184,0,10,['Primitive Camping Areas'],0.0,79036,Fritch
86,4285489C-2D25-4967-91E7-18597C645A0F,Bullfrog RV & Campground,glca,37.5199691549143,-110.721029500387,24,75,['Limited Development Campground'],46.0,84533,Lake Powell
87,46473049-16E4-4629-A3AD-00E108D06584,Burns Lake,bicy,25.8931188486191,-81.2297696743782,15,0,[],24.0,34141,ochopee
88,46B56158-098F-454B-AA80-B4F167736A29,Burnwood Group Campsite,neri,38.073636,-81.077535,1,0,['Primitive Camping Areas'],75.0,25862,Lansing
89,68B2FAB6-1857-4C5D-B025-1AA2712A7BFD,Bush Mountain Wilderness Campground,gumo,31.92641602069643,-104.87668543567212,5,0,['Designated Primitive Campsites'],6.0,,
90,8AA8C347-B5A7-47F2-A2D4-A37635F8E4B3,Butte Lake Campground,lavo,40.56480115555671,-121.30576429271788,107,0,['Limited Development Campground'],22.0,96071,Old Station
91,9CAD260F-57A8-4814-87FA-E61D14108C81,Cabin Camp 1 (By Reservation Only),prwi,38.59701768873082,-77.35605254877296,1,0,['Developed Campground'],670.0,22025,Dumfries
92,CBA8D848-FB74-4492-9E5D-E1E4979A976B,Cabin Camp 2 (By Reservation Only),prwi,38.5813750413292,-77.4157374023348,1,0,['Developed Campground'],630.0,,
93,B26D8D06-514E-4230-A314-CF0ED2023B98,Cabin Camp 3 (By Reservation Only),prwi,38.56367216064515,-77.36493032549049,13,0,['Developed Campground'],475.0,55347,Triangle
94,67817EE3-C197-45DD-AEF0-E5E86061691B,Cabin Camp 4 (By Reservation Only),prwi,38.59150925969603,-77.35386082375908,1,0,['Developed Campground'],650.0,22025,Dumfries
95,2D5D7B26-19D2-4583-A370-86575EA22C2F,Cabin Camp 5 (By Reservation Only),prwi,38.57577906331334,-77.41256789301235,1,0,['Developed Campground'],790.0,22172,Triangle
96,EE34E034-775B-4EB2-ABEC-F23AF045D3AB,Cacapon Junction Hiker-Biker Campsite,choh,39.621284,-78.279305,0,1,['Designated Primitive Campsites'],0.0,21750,Woodmont
97,711EFDE3-F836-4A4C-B58C-D3E28386BDE4,Cades Cove Campground,grsm,35.60272464725332,-83.77629277369829,164,0,['Developed Campground'],30.0,37882,Townsend
98,E4E470BE-46E5-44B6-A65A-31CFAAB939DB,Cades Cove Group Campground,grsm,35.60389164669365,-83.77130987431053,4,0,[],35.0,37882,Townsend
99,9EBA8986-2A1F-4207-82D1-F155A10BEB35,Calico Rocks Hiker-Biker Campsite,choh,39.271168,-77.535582,0,1,['Primitive Camping Areas'],0.0,21777,Point of Rocks
100,34A6DDB4-815E-484B-A366-6DB3024920B3,Callville Bay Campground (Lake Mead),lake,36.1378088551872,-114.72861216150868,0,52,[],20.0,,
101,8131F253-D893-42FA-A162-4CDE07363AD5,Callville Bay RV Park (Lake Mead),lake,36.143263,-114.725594,0,0,['Developed Campground'],,89040,Overton
102,8F36DEB6-298E-4214-A677-064BD457996A,Camp 4 Campground,yose,37.7420541114337,-119.602253054678,0,25,['Developed Campground'],10.0,,
103,D378656F-72C7-4F18-A3CC-741CBEE9B394,Camp Greentop,cato,39.64454144079283,-77.4765647339641,1,1,['Developed Campground'],1000.0,21788,Thurmont
104,9EE76DDC-80AB-4283-BCE9-F85952ED03E1,Camp Misty Mount,cato,39.6418851453505,-77.4484489543919,30,0,['Developed Campground'],50.0,21788,Thurmont
105,905221FE-094D-4E73-90EB-205CBCAD69AA,Camp Round Meadow,cato,39.6449169814922,-77.4876280994409,1,0,['Developed Campground'],1000.0,21780,Sabillasville
106,8B813CCA-9522-490F-A477-1904540C69A3,Camping and Huts,kaww,46.1249342961593,-68.801462993981,2,22,[],,,
107,77D2C8BE-94A4-4550-9823-7183C50F4803,Canaveral National Seashore Backcountry Island Camping,cana,28.92700096310608,-80.82460296672082,14,0,['Designated Primitive Campsites'],20.0,32169,New Smyrna Beach
108,8C42E6D8-1819-46F3-A363-3C8107A1AFAC,Canyon Campground,yell,44.73538374887841,-110.48791238318904,273,0,['Developed Campground'],39.0,82190,Yellowstone National Park
109,ECDA4D3D-F3B7-4ED3-ABEA-9FDE0839E053,Canyon City,klgo,59.6075624,-135.3246672,11,0,[],54.6,99840,Skagway
110,85543439-6134-478E-8593-36D96471F5E6,Canyon View Campground,nava,,,3,10,[],0.0,86054,Shonto
111,3851B132-FEA2-45BD-9F47-CE177AC59489,Canyon View Campground,seki,36.78719293800008,-118.66544930776234,16,0,['Developed Campground'],50.0,93633,Kings Canyon National Park
112,C250A435-A020-4A92-A14F-1F9737B25F45,Cape Point Campground,caha,35.235775,-75.53911,202,0,['Developed Campground'],20.0,27920,Buxton
113,BD44D68E-2EAA-456B-842C-75136B035CB1,Caribou Island Campground,isro,48.094571206998936,-88.57220404720897,0,3,['Limited Development Campground'],0.0,49931,Houghton
114,1FEBD642-4DE4-49FD-9DF1-3EF8E499AC03,Carver Campground,buff,35.9835736001,-93.0401838004,0,8,['Limited Development Campground'],16.0,72641,Jasper
115,8B71E7E6-5EF0-49D8-8E33-2578A64A6DD5,Cataloochee Campground,grsm,35.631185945507,-83.08554127280615,27,0,['Developed Campground'],30.0,37876,Waynesville
116,CE2A760B-8A8F-4083-9E6F-3DB38B313145,Cave Creek Campground,orca,42.1139211881,-123.429613284,0,17,['Limited Development Campground'],10.0,97523,Cave Junction
117,DF24E937-0AA1-4E65-84A8-3F2458EFD1C5,Cedar Canyon Campground,lamr,35.79584,-101.24451,0,15,['Primitive Camping Areas'],0.0,79036,Fritch
118,92F73FF4-10AB-45D0-915E-AC0A063420E2,Cedar Pass Campground,badl,43.744154,-101.950161,96,0,['Limited Development Campground'],23.0,57750,Interior
119,89CB27D1-22A1-437E-9528-3D99DE6A22F0,Central Avenue Walk-in Sites,indu,41.70145327467744,-86.94854736328125,5,5,['Primitive Camping Areas'],25.0,46360,Michigan City
120,4AFE2D11-908E-489B-B8A0-A2222AE752A3,Central Campground,chic,34.5031796294,-96.9655507482,10,0,[],30.0,,
121,3D7C58EB-7354-4212-98E7-CCD7C13BC98F,Chapel Individual Backpacking Sites,piro,46.546925,-86.440929,6,0,[],5.0,,
122,3E73BA85-7545-4A30-9ACD-A9E3C073DB2A,Chimney Hollow Campground,lamr,35.6918602938,-101.642234005,0,0,[],0.0,79036,Fritch
123,ECF46E27-F335-4766-9140-56A8D2AAC209,Chippewa Harbor Campground,isro,48.02936725450616,-88.6510379097632,1,6,['Limited Development Campground'],0.0,49931,Houghton
124,B9D70C3C-FCA6-4E10-A654-8D0D2B38CAA7,Chisel Branch Hiker-Biker Campsite,choh,39.102158,-77.473011,0,1,['Designated Primitive Campsites'],0.0,20837,Poolesville
125,127199AC-A753-4B49-B3FF-1F8484B61CBE,Chisos Basin Campground,bibe,29.275900792177,-103.302285692397,56,0,['Developed Campground'],16.0,,
126,5529F57E-216A-47FB-B513-067410887BC0,Chopawamsic Backcountry Area,prwi,38.55876142507402,-77.40690973222598,8,0,['Primitive Camping Areas'],0.0,22172,Triangle
127,B6981A2D-2C0B-47DF-B7F8-67A25A35D24A,Cimarron Campground,cure,38.4443044882,-107.555542845,0,0,['Limited Development Campground'],16.0,,
128,0BB3AD5F-2DA4-48B2-AD2D-C52229037A3E,Cinnamon Bay Beach and Campground,viis,18.35231014634408,-64.75408127304699,50,0,['Developed Campground'],50.0,,
129,14084144-35CA-4862-96D8-72364E4A638B,Circle X Ranch Campground - CLOSED,samo,34.1112789977,-118.926525539,1,1,['Limited Development Campground'],9.0,90265,Malibu
130,849C892E-19ED-4539-8591-CF2D1670D380,City of Rocks Campground,ciro,42.067203,-113.701382,67,6,['Limited Development Campground'],14.0,83312,Almo
131,E9451131-5026-4E61-B72E-F385A0C6AC48,Cliffs Group Backpacking Site,piro,46.48567,-86.556577,1,0,[],5.0,,
132,B9D839A2-7500-4CFC-9EB7-1A1C8F7B7425,Cliffs Individual Backpacking Sites,piro,46.473431,-86.570456,3,0,[],5.0,,
133,79EC784A-70FD-4C73-BD0E-C5D0C96F4F57,Cloverleaf Campground,laro,48.297110973764575,-118.14685853299346,7,0,['Limited Development Campground'],23.0,99131,Gifford
134,6EBE4D11-5079-45B7-BDA5-84280A8EE7DF,Coast Campground,pore,38.01717280583828,-122.85437534114334,13,1,['Designated Primitive Campsites'],30.0,94956,Point Reyes Station
135,E43BEB8F-1EE3-4CDD-88EB-ED8262628F95,Cold Springs Campground,seki,36.45130196165861,-118.61241063028548,40,0,['Designated Primitive Campsites'],28.0,93271,Sequoia National Park
136,70748762-AEEB-4057-82DD-B0509183305A,Cold Springs Campground,chic,34.5007809022,-96.9604327557,65,0,[],14.0,,
137,1410EA4F-FA47-40E0-9C51-B7C012EFD228,Colonial Creek North Campground,noca,48.691,-121.101,44,0,['Developed Campground'],24.0,98284,Sedro-Woolley
138,24D589C4-88AF-4BFA-8A02-1FF9E8134B04,Colonial Creek South Campground,noca,48.687,-121.094,91,0,['Developed Campground'],24.0,98284,Sedro-Woolley
139,3DC83C15-25CE-488E-816B-64FEBB1F79FF,Colorado River Primitive Camping Between Glen Canyon Dam and Lees Ferry,glca,36.86618866356771,-111.586686295785,0,5,['Designated Primitive Campsites'],0.0,86040,Page
140,35B51EB0-EB3E-4C41-9753-2C97CFDDAD93,Colter Bay Campground,grte,43.9074780505115,-110.641378983075,347,0,['Developed Campground'],50.0,83013,Moran
141,2E829940-0ECC-49A7-85FB-F0AE8D45EBA0,Colter Bay RV Park,grte,43.905642,-110.641324,112,0,['Developed Campground'],112.0,83013,Moran
142,DF1FBE98-BC80-4770-84A3-F207D1F8A27A,Colter Bay Tent Village,grte,43.90415026510925,-110.63494741916656,66,0,['Developed Campground'],98.0,83013,Moran
143,B3B0C4BD-BB79-40AA-B678-B953294BB9A3,Cosby Campground,grsm,35.7545448462525,-83.20925027349114,157,0,['Developed Campground'],30.0,37722,Cosby
144,9B5A7B2B-E147-429F-B52F-EDBF1B48EBB0,Cottonwood Campground,jotr,33.744880129561544,-115.81282987420816,62,0,['Developed Campground'],25.0,92277,Cottonwood Springs
145,A9F2297C-AFF2-48EA-BD2A-2BBE35BDE306,Cottonwood Campground,thro,46.949934505,-103.531268589,37,36,['Developed Campground'],14.0,,
146,D7143083-B16F-45C0-8493-E717CEDA7C3B,Cottonwood Campground,bibe,29.13678040347906,-103.52251396165582,22,0,['Limited Development Campground'],16.0,,
147,B6682425-0D1C-4646-846F-1C0E248CBCFA,Cottonwood Cove Campground (Lake Mohave),lake,35.487755719796056,-114.69503347257717,45,0,[],,,
148,7260C786-CEE8-46B2-9C76-DC0828B7E468,Cottonwood Cove RV Park (Lake Mead),lake,35.49080255042127,-114.68835234952483,0,0,[],,,
149,9D67A3A2-CFAB-45A1-8E9E-5A19DE56137F,Cougar Rock Campground,mora,46.767606803,-121.792370845,133,46,['Developed Campground'],20.0,,
150,894E2817-C7C9-48DA-BABF-3C1679567835,Coves Group Backpacking Site,piro,46.56088,-86.395902,1,0,[],5.0,,
151,A451A935-35BF-4391-96E5-B9C8D492FCFE,Coves Individual Backpacking Sites,piro,46.568171,-86.372254,5,0,[],5.0,,
152,B7FFF416-1181-4457-931B-6F9920C0EFE7,Crabtree Falls Campground,blri,35.815386045639634,-82.14556897298166,27,54,['Developed Campground'],20.0,28777,Spruce Pine
153,B1396AAB-EA01-4A6C-B45E-A9BBA51A89A1,Crane Flat Campground,yose,37.7497960831966,-119.800258983341,151,0,['Developed Campground'],36.0,,
154,4A67F766-D8C0-451B-86AD-CD7DD878EB80,Crystal Creek,whis,40.6422,-122.6710333,2,0,['Limited Development Campground'],20.0,96095,Whiskeytown
155,6D44AAC6-2A52-416E-8087-6202B8AD52BB,Crystal Springs Campground,seki,36.74532774271368,-118.9629581339243,50,0,['Limited Development Campground'],28.0,93633,Grant Grove
156,4FA8CCF3-5D38-41C0-A77F-06ADCB37BA53,Cumberland Valley Hiker-Biker Campsite,choh,39.562141,-77.853069,0,1,['Primitive Camping Areas'],0.0,21795,Williamsport
157,4624D185-108D-460F-9331-5EC95512BEC7,Cut Bank,glac,48.6059915915,-113.376949654,0,14,[],10.0,59936,
158,70336B82-9090-4BFA-8D3D-47BDC91F4542,D. H. Day Campground,slbe,44.89615,-86.02006,88,0,['Developed Campground'],20.0,49636,Glen Arbor
159,FD182876-4CAF-4630-8E88-0B710A434AE4,D. H. Day Campground Group Campground,slbe,44.89615,-86.02006,4,0,['Limited Development Campground'],40.0,49636,Glen Arbor
160,808BBAC7-F662-47F6-B2BC-2BEF78B73A69,Daisy Farm Campground,isro,48.09208065079491,-88.59622128173942,3,22,['Limited Development Campground'],0.0,49931,Houghton
161,E33743CA-5B4A-4DC6-84D8-BCA4984BFE67,Davis Bayou Campground,guis,30.397808,-88.795595,52,0,['Developed Campground'],22.0,39564,Ocean Springs
162,A7C0F001-EDB5-4832-BB9A-5DF82A4EC57A,Dayboard 9 Campground,bica,45.2651648,-108.0028519,0,5,['Designated Primitive Campsites'],0.0,59035,Fort Smith
163,2266A16D-7440-4B19-840A-B8B570FFF31F,Deep Creek Campground,grsm,35.46031234620795,-83.43466297423731,92,0,['Developed Campground'],30.0,28713,Bryson City
164,522A398C-D05C-4F67-B1E4-E4F8DF7ED18D,Deerlodge Park Campground,dino,40.4464807631185,-108.5133041338832,0,7,['Limited Development Campground'],10.0,81610,Dinosaur
165,889D3F1F-C595-40D2-B66B-5DA52128DB6A,Desert View Campground (Reservations Required),grca,36.03893681571232,-111.82260877399584,49,0,['Limited Development Campground'],18.0,86023,Grand Canyon
166,F41195B6-57A5-43FA-9509-CE4AE75FFA95,Devils Alley Hiker-Biker Campsite,choh,39.622156,-78.411328,0,1,['Primitive Camping Areas'],0.0,21766,Little Orleans
167,FE998695-1CD4-42C2-A57C-0B8B257BBE09,Devils Garden Campground,arch,38.7773329174,-109.588799042,51,0,['Limited Development Campground'],25.0,84532,Moab
168,DC29D4FD-0E76-41AF-8A2E-74FA3626C3EF,Dingmans Campground,dewa,41.2110633,-74.8736983995,136,136,['Developed Campground'],,18328,Dingmans Ferry
169,C46D4DBB-5B16-4F5A-BBFA-34C350639B98,Dog Canyon Campground,gumo,31.9948983481,-104.832847248,15,0,[],20.0,79847,Salt Flat
170,E2472655-E82D-4C38-A9B6-0C374BEE7828,Dorst Creek Campground,seki,36.636171213229,-118.80850264793725,202,0,['Developed Campground'],28.0,93262,Sequoia National Park
171,85AB5EC6-9BBC-4369-9CFA-A51A6D4498A0,Dosewallips Campground (Walk-In Only),olym,47.7373029,-123.1647009,0,14,['Primitive Camping Areas'],15.0,98362,Port Angeles
172,298C9FE2-25B3-4A60-BE23-76E43A703FC5,Doughton Park Campground,blri,36.42949264609475,-81.15577587281024,31,77,['Developed Campground'],20.0,28644,Laurel Springs
173,AC12C7C9-38CD-4F10-828D-8C903F1C7926,Douglas Spring,sagu,32.227981,-110.606875,0,0,[],,85730,Tucson
174,4C4E2EBD-9A3D-4E59-A7D8-1E68EB5EA501,Dry Creek Group Campground,whis,40.6253167,-122.5807,2,0,['Developed Campground'],80.0,,
175,1D41C0D1-7DA9-44AE-8692-12A63255B0D6,Dry Gulch Campground,cure,38.4841144836276,-107.188437346818,0,0,['Limited Development Campground'],16.0,,
176,C1388F86-68A9-4C1C-85C2-193CD4BD3EE1,Duck Harbor Campground,acad,44.0277948996318,-68.6535293990644,5,0,['Designated Primitive Campsites'],20.0,04609,Bar Harbor
177,6AAEA981-168E-4F68-AABC-5140D75F05F4,Dump Station,grba,39.006544,-114.215989,0,0,[],10.0,,
178,665A07F7-CD99-401A-8674-4C65AC41954C,Dunbar Group Site,indu,41.68266002966044,-87.00171411037445,1,0,['Designated Primitive Campsites'],100.0,46304,Porter
179,0DFCB514-30BF-4FFE-B944-65FC6F41D214,Duncan Bay Campground,isro,48.150633110830206,-88.52247086940037,0,3,['Limited Development Campground'],0.0,49931,Houghton
180,3950A5D1-88F1-4727-857F-91473917C23F,Duncan Narrows Campground,isro,48.169312119814265,-88.47796476335344,0,3,['Limited Development Campground'],0.0,49931,Houghton
181,79E68F95-541A-49F8-8CC3-97C07A59670E,Dundo Group Campground,shen,38.2341,-78.7216,3,0,['Limited Development Campground'],75.0,22932,Crozet
182,B526C74A-2287-48D2-A480-F4FD2F832CE5,Dunewood Campground,indu,41.671966000578976,-86.9837859988566,66,0,['Limited Development Campground'],25.0,46360,Beverly Shores
183,DFE57C24-C7F4-4F2D-87B7-54A81D20D2E4,Dyea Campground,klgo,59.5072499,-135.3504976,0,22,['Limited Development Campground'],10.0,,
184,4C757AF8-2F39-49A8-A624-F63EB7F5BA90,East Chickenbone Campground,isro,48.073437514172,-88.69425862129464,1,3,['Primitive Camping Areas'],0.0,49931,Houghton
185,B9E356D7-B123-45F9-961B-F6AAE98FD6E0,East Elk Creek Group Campground,cure,38.484167,-107.188333,1,0,['Limited Development Campground'],53.0,,
186,C7040322-AF55-456C-A03B-5EF85E48E83B,East Portal Campground,cure,38.527059599536,-107.64948401793,0,15,['Limited Development Campground'],,,
187,FB7ECE1E-C9F6-4841-B52A-071DFBD4FAFC,East Portal Campground,blca,38.526896,-107.649306,0,15,['Limited Development Campground'],16.0,81401,Montrose
188,FBCE7DA5-896A-4A5B-939E-4AEACC63CC76,Echo Bay Campground (Lake Mead),lake,36.30813734081407,-114.4368978637836,0,37,['Developed Campground'],20.0,89005,Boulder City
189,5B501930-E3AB-4CB2-A5F7-9605E922A025,Echo Bay RV Park (Lake Mead),lake,36.31007553862327,-114.43199832188292,0,0,[],,,
190,32C0E210-8389-49F0-BFDF-B434678FCFEE,Echo Park Campground,dino,40.5208668444,-108.993230693,1,17,['Limited Development Campground'],10.0,81610,Dinosaur
191,DEAF023E-A2A4-4656-BB05-FC71582BE67D,El Morro Campground,elmo,35.0368936454882,-108.33681211762,0,9,['Limited Development Campground'],0.0,87321,Ramah
192,B2E3FA84-A72E-4193-95E9-A53557BBDCF5,Elk Creek Campground,cure,38.4674202781,-107.172066844,111,49,['Developed Campground'],16.0,,
193,46F315CE-1A6C-4600-BDE0-98D044A55172,Elk Mountain Campground,wica,43.56547071700004,-103.48823452199996,62,62,['Limited Development Campground'],24.0,57747,Hot Springs
194,1734D80A-77AA-4392-A53B-36206595BDCC,Elk Prairie Campground,redw,41.35982485324314,-124.02943276711778,75,0,['Developed Campground'],35.0,95531,Crescent City
195,63D37502-C1A6-44B7-A2C3-C4F784C03318,Elkmont Campground,grsm,35.65875714556928,-83.5827404743859,211,0,['Developed Campground'],30.0,37738,Gatlinburg
196,1B42DF20-EB0E-4F6A-8094-BCF63BA6B54F,Elkmont Group Campground,grsm,35.6596758456,-83.5863818735,4,0,[],53.0,37738,Gatlinburg
197,D5A0E41F-CF3C-4669-B774-C71AE16199A1,Elliott Key Campground,bisc,25.4535845128,-80.1958850931,0,0,['Limited Development Campground'],35.0,,
198,F448D6D4-AA8F-48BA-B5B8-FEC826541394,Emigrant Campground,deva,36.49652164991439,-117.2270724365626,0,10,['Primitive Camping Areas'],0.0,92328,Death Valley
199,74277392-66F4-4FEB-B95B-A9FD2B6D4258,Erbie Campground,buff,36.0713269988,-93.2149368998,3,18,['Limited Development Campground'],0.0,72641,Jasper
200,E8A7594F-7F0C-4E5D-8465-2C4A4A055855,Esker Campsite,kaww,45.9083960065,-68.6795909867,0,1,[],0.0,04765,Patten
201,7E6E57BE-02ED-4440-AE5C-1BD6A8DE82C1,Eureka Dunes Campground (Primitive),deva,37.112,-117.6809,0,5,['Primitive Camping Areas'],0.0,92328,Death Valley
202,41D2DEC1-F454-45FD-9239-B0E91C665BE7,Evans Campground,laro,48.69881814742667,-118.01765146027128,43,0,['Limited Development Campground'],23.0,99126,Evans
203,1036CB25-3FAD-48EA-A264-E197016C6D77,Evans Group Site,laro,48.701517,-118.018959,1,0,['Limited Development Campground'],55.0,99126,Evans
204,CA193220-AEAD-4170-BBD3-1275AE5770DD,Evitts Creek Hiker-Biker Campsite,choh,39.616979,-78.73259,0,1,['Primitive Camping Areas'],0.0,21740,Hagerstown
205,5F2A45B9-4C98-4710-B06B-30D23ACF5E79,Exit Glacier Campground,kefj,60.1909682429161,-149.618120247669,0,12,['Limited Development Campground'],0.0,99664,Seward
206,F15D3521-C877-4DA6-BE0A-E78B83D39AC7,Fairholme Campground,olym,48.07007999922397,-123.91813840922975,88,0,['Developed Campground'],24.0,98363,Port Angeles
207,D8A2C986-6DAD-48A9-8A0D-93133EE7C4C5,Feldtmann Lake Campground,isro,47.84857314451423,-89.18297185832984,2,5,['Primitive Camping Areas'],0.0,49931,Houghton
208,7918FDCD-28B1-4A0B-AD5A-86EAAB88CFB6,Fifteenmile Creek Campground,choh,39.625303049257006,-78.38559864575001,10,0,[],40.0,,
209,3CD41217-24F5-4D7B-B34A-436506EEC448,Finnegan's Point,klgo,59.575423,-135.3348773,6,0,[],54.6,99840,Skagway
210,D3D02CD0-A5DB-430B-A1FC-B498FD1890E0,Fish Creek,glac,48.5501313186,-113.982962737,178,0,['Developed Campground'],23.0,59936,West Glacier
211,64ABF507-2DCD-4FE4-90B9-F2C5636D4B52,Fishing Bridge RV Park,yell,44.5647552489551,-110.369472282319,310,0,['Developed Campground'],89.0,82190,Yellowstone National Park
212,4F5128AD-453F-4B40-91F0-388FD662D110,Flamingo Campground,ever,25.137301004201746,-80.93947649002075,159,28,['Developed Campground'],50.0,33034,Flamingo
213,C2D30818-1C74-4284-9DBA-C689A6977BC0,Fort Casey State Park,ebla,48.1568610743654,-122.67400959303,0,0,[],,98239,Coupeville
214,B1C748D9-1239-4E42-A61E-3387E02AEDA5,Fort Charlotte Backcountry Campgrounds,grpo,48.0036880999,-89.8283403009,2,0,['Primitive Camping Areas'],0.0,55605,Grand Portage
215,2E0F6571-F19E-4AE9-98AC-6AC486B48B7C,Fort Ebey State Park,ebla,35.6474198892006,-101.628934056876,0,0,[],,98239,Coupeville
216,18921332-CD30-4B8B-8CD7-08CAA365919E,Fort Pickens Campground,guis,30.3232083475706,-87.27597277635039,188,0,['Developed Campground'],25.0,32561,Pensacola Beach
217,05011267-F78C-4A27-B956-6F82230C7BBE,Fort Spokane Campground,laro,47.91057783564893,-118.3059186711921,67,0,['Limited Development Campground'],23.0,99122,Davenport
218,6838ABBE-4A61-4668-9D33-FE56AD77D7E4,Fort Wadsworth Campsite,gate,40.599998,-74.054771,7,0,[],30.0,,
219,66DA0C26-4D6E-4C02-AA89-794655DF2C38,Frijole Horse Corral Campground,gumo,31.8995224439952,-104.799849430182,1,0,['Limited Development Campground'],60.0,,
220,5A68AFB0-A5CD-4892-9222-880AF77B37BE,Frisco Campground,caha,35.237075,-75.603357,117,0,['Developed Campground'],28.0,27920,Frisco
221,12BCF9B8-3B58-4787-97E7-99D7D1EFA719,Fritch Fortress,lamr,35.6817457818143,-101.598311253546,0,15,['Limited Development Campground'],0.0,79036,Fritch
222,B1B4EA86-DDA9-416A-9E7B-D718DF3C3233,Fruita Campground,care,38.2825607383,-111.248097934,65,0,['Developed Campground'],25.0,84775,Torrey
223,2DCEC434-825E-46B0-AF59-21BE27A849A1,Furnace Creek Campground,deva,36.4657541512,-116.868157545,136,0,['Developed Campground'],22.0,92328,Death Valley
224,BD1E41E6-D629-4C80-93F5-A7F537B7E999,Gallo Campground,chcu,36.03612040541528,-107.89180924860386,0,0,[],,,
225,7FB9E93F-7F2B-4967-862E-BB2B24722B14,Garden Key Campground,drto,24.6270109567431,-82.8734064423241,0,8,['Primitive Camping Areas'],15.0,33034,Homestead
226,C37B6AA5-24C5-4982-9058-8BBEA3E07DE3,Gates of Lodore Campground,dino,40.72492348417907,-108.88782437201075,0,19,['Limited Development Campground'],10.0,81640,Maybell
227,5B7FB84F-E9EB-448D-B721-9176B8B4B11A,Gateview Campground,cure,38.3844578817442,-107.242874927003,0,6,['Limited Development Campground'],0.0,,
228,EDF9CACD-CA15-478C-830B-581FB3A18BDE,Gator Head,bicy,26.2238175484,-81.2677556747,0,9,['Limited Development Campground'],10.0,34141,Ochopee
229,5DA9B21A-60C6-4B73-B115-D9273354A6C9,Gauley Tailwaters,gari,38.21439035407238,-80.88885151780727,0,18,['Designated Primitive Campsites'],0.0,,
230,F45274CB-22BB-46A9-91FF-F83EF7CC45E8,Gifford Campground,laro,48.2858575736509,-118.142799633773,42,0,['Limited Development Campground'],23.0,99131,Gifford
231,D55642DE-EA9F-4B67-85AE-0A85556616E6,Gifford Group Site,laro,48.288223,-118.143881,1,0,['Limited Development Campground'],55.0,99131,Gifford
232,6715A7CC-280C-4093-85D3-492004C2DB48,Glacier Basin Campground,romo,40.32980715336969,-105.59562927944025,153,0,['Developed Campground'],35.0,80517,Estes Park
233,C838E1A7-6558-4F7B-8F2D-FE51D9DC333D,Glade Creek Campground,neri,37.82841131456489,-81.01298532714685,0,11,['Primitive Camping Areas'],0.0,25907,Prince
234,68E04D73-F0F7-490C-B9B9-E95A03564825,Glen Campground,pore,37.98931070849041,-122.78848792812424,11,1,['Designated Primitive Campsites'],30.0,94956,Point Reyes Station
235,09141625-F881-4441-AF5E-B0FAA9887D4F,Goat Island Primitive Camping,mnrr,42.765746,-97.066858,0,2,['Designated Primitive Campsites'],0.0,68792,Cedar County
236,2D58DB61-4744-4A49-8012-A1C53FD6E3BE,Gold Bluffs Beach Campground,redw,41.38221738914677,-124.0698821873994,26,0,['Developed Campground'],35.0,95555,Orick
237,9D6E5F9A-BB88-4170-A3B4-87F303AA0836,Goodell Creek Campground,noca,48.673,-121.267,19,0,['Limited Development Campground'],20.0,98284,Sedro-Woolley
238,43B0C61B-D068-48EB-9AD9-F06A0DE250BE,Gorge Lake Campground,noca,48.716,-121.152,8,8,['Limited Development Campground'],20.0,,
239,FFA388BF-3129-4FC4-80ED-D163E8199587,Governors Landing Campground,amis,29.479076370014475,-101.02886321679988,0,15,['Limited Development Campground'],10.0,,
240,4A23813E-3190-4E4F-8272-0001F57A049C,Grace Island Campground,isro,47.88249028850224,-89.21635637438078,0,2,['Limited Development Campground'],0.0,49931,Houghton
241,6929599F-D083-481C-A5A9-D551EC31CAA3,Grand Pitch Lean-to,kaww,46.057785,-68.748256,0,1,['Designated Primitive Campsites'],0.0,,
242,356C56D3-A5F9-4B57-8781-37B19C0F9393,Grand Sable Lake Boat-In Site,piro,46.64323548207715,-86.0319734881054,1,0,['Limited Development Campground'],5.0,,
243,1487B254-91D2-4BA2-BC19-FF6FA7BB18A7,Grandview Sandbar,neri,37.85653168961612,-81.05256733791589,0,16,['Primitive Camping Areas'],0.0,25907,Prince
244,E8EB610A-8BBA-490F-BC39-CBCB28909F20,Grant Village Campground,yell,44.3942533493729,-110.563444983232,430,0,['Developed Campground'],39.0,82190,Yellowstone National Park
245,59EF188B-482C-4E9F-BD9B-414411DB6727,Grapevine Campground,bica,45.31804610741141,-107.94067157826736,12,0,['Limited Development Campground'],18.0,,
246,812CF898-9225-4E23-9937-85FB14490F36,Grass Shack,sagu,32.183854,-110.592818,0,0,[],,85730,Tucson
247,2EA47E1B-6EA8-476D-A491-376F850EF923,Graves Creek Campground,olym,47.573831087,-123.576795443,0,30,['Primitive Camping Areas'],20.0,98362,Port Angeles
248,19323FC8-387C-4F88-870A-BDE13D3E5447,Great Island Cabin Camp,calo,34.76055561111111,-76.41222219444445,23,0,['Developed Campground'],80.0,28524,Core Banks
249,7CB72719-D7D0-49B9-B3AF-D71316CAB9B4,Green Island Primitive Camping,mnrr,42.86381530885288,-97.4033088680153,0,5,['Designated Primitive Campsites'],0.0,,
250,0AD1C4E8-ED05-426E-8332-EA369022B8C5,Green River Campground,dino,40.42097747242215,-109.24317566803744,54,27,['Developed Campground'],18.0,84035,Jensen
251,7F7BBB8F-3E23-4B9F-8EA7-DB17EE88FDE8,Greenbelt Park Campground,gree,38.97908,-76.89841,172,0,['Designated Primitive Campsites'],20.0,20770,Greenbelt
252,27D0E27F-2644-42D0-952B-EE41A0AD5E83,Grey Cliffs Campground,grba,38.99115,-114.219121,16,0,['Developed Campground'],20.0,,
253,F79BD2D4-B5CE-4405-99F4-AF59DD1913A6,Gros Ventre Campground,grte,43.6159078257903,-110.665883983664,322,0,['Developed Campground'],50.0,83011,Kelly
254,6A989D7D-8AA1-432E-A915-337BB2B45E4C,Group Campsite,care,38.2789,-111.2514,1,0,[],125.0,84775,Torrey
255,EAA68679-D1DF-4327-AA61-7B1293EA17E5,Guadalupe Peak Wilderness Campground,gumo,31.8934963936164,-104.851581112569,5,0,['Designated Primitive Campsites'],6.0,,
256,B09710B2-3D0B-47B0-B15E-ABAFC4243F75,Gulpha Gorge Campground,hosp,34.52436309933005,-93.03604779926388,40,0,['Developed Campground'],34.0,71901,Hot Springs
257,34728A7E-796D-4834-949A-4E960CC945C1,Gunter Hill Campground,semo,32.358663,-86.452365,0,0,[],,,
258,D9E5422D-1BC9-436A-9695-857D7CE64FD5,Guy Sandy Campground,chic,34.4561844867,-97.052303804,0,40,['Limited Development Campground'],14.0,,
259,13D9E8A8-CF13-4AC4-9482-81AFC6ADBAF6,Haag Cove Campground,laro,48.56066088100678,-118.1518041537181,18,0,['Limited Development Campground'],23.0,99141,Kettle Falls
260,2279D883-668A-490A-A794-2060011B8960,Halls Crossing RV & Campground,glca,37.4577993989406,-110.71820138441,24,41,['Limited Development Campground'],100.0,84533,Lake Powell
261,D1770365-E6B3-45F2-8029-13E6F75DF232,Happy Valley Saddle,sagu,32.154022,-110.518452,0,0,[],,85730,Tucson
262,95C99A7D-D423-4F04-967D-B22EEC464C56,Harbor Bay Campground,lamr,35.6478560545659,-101.628983197957,0,25,['Limited Development Campground'],0.0,,
263,55555B90-B545-4045-BB65-1FBB696E4515,Harlequin Campground,noca,48.3468,-120.7137,6,1,['Limited Development Campground'],20.0,,
264,3A459D88-DF35-41D2-AE2F-2D0829B4BE08,Haskell Campsite,kaww,46.073046,-68.768473,0,1,['Designated Primitive Campsites'],0.0,,
265,95AFF7B7-E0DE-4872-A58E-9E4179AD5474,Haskell Hut,kaww,46.07962364552255,-68.77007902706657,1,0,['Primitive Camping Areas'],0.0,04765,Patten
266,374DF57A-1323-4107-B5B2-5C31633CEB80,Hatchet Lake Campground,isro,48.02113448367796,-88.85081644657868,3,5,['Primitive Camping Areas'],0.0,49931,Houghton
267,CF4FCDE0-60FD-42DE-9A64-816E3601A562,Hawk Campground,goga,37.854157537291584,-122.52064607251748,3,0,['Primitive Camping Areas'],25.0,94965,Sausalito
268,42969E1F-9F45-4417-9493-A068CE39E500,Hawk Creek Campground,laro,47.81516448439866,-118.32495194907403,20,0,['Limited Development Campground'],23.0,99117,Creston
269,59C82327-07CE-4C77-BEB3-29BDABA8A60F,Hay Bay Campground,isro,47.93386908337534,-88.93999432938057,0,1,['Limited Development Campground'],0.0,49931,Houghton
270,0FAC4543-542C-4B14-9930-27EA43E2E842,Haypress Campground,goga,37.86078511593824,-122.54645447713447,6,0,['Primitive Camping Areas'],25.0,94965,Sausalito
271,C015D3D1-180D-408C-88AB-B73EAEA89E10,Headwaters Campground,grte,44.1058980602854,-110.671020215965,171,0,['Developed Campground'],52.0,83013,Moran
272,C4C0ACBD-0AE4-4970-9C6A-E75A0153050D,Heart O' the Hills Campground,olym,48.0362664284,-123.429967329,0,97,['Developed Campground'],24.0,98362,Port Angeles
273,CD6FC82F-A9B7-46EA-A6A4-2FD69E7E017D,Hickory Hill Wilderness Campsite,cuis,30.8327,-81.4514,4,0,[],9.0,,
274,8271D39A-48E1-4693-B3E2-2DBE4C3511D2,Hidden Valley Campground,jotr,34.01718844292067,-116.16273695815448,0,44,['Limited Development Campground'],15.0,,
275,53B78B5A-F056-47DB-B254-13C2EDEC8094,Hite Outpost Adventure Center - Closed until further notice,glca,37.87686,-110.381007,35,0,['Developed Campground'],,84533,Campground is closed
276,3BE59EF8-1327-4B0F-B4ED-AFE4C6085DEE,"Hite Primitive (Dirty Devil, Farley, White Canyon) camping",glca,37.864131,-110.399782,0,0,['Primitive Camping Areas'],12.0,86040,Page
277,8D89A88A-5E90-449B-B4FA-78026CF14D70,Hodgdon Meadow Campground,yose,37.7998824480597,-119.867033107265,0,99,['Developed Campground'],36.0,,
278,B4D16CA6-183B-492C-BDEA-A41DA6349EDD,Hoh Campground,olym,47.8583524952499,-123.935540122439,78,0,['Developed Campground'],24.0,98331,Forks
279,91F6D1D1-70F5-44EE-9930-4003ECC52A22,Hole-in-the-Wall Campground,moja,35.046023820433334,-115.39356516179195,0,35,['Limited Development Campground'],12.0,92332,Essex
280,2BB05B85-183A-49D2-B9B6-612A7BBF3793,Homestake Campground (Primitive),deva,36.6376,-117.5738,0,10,['Designated Primitive Campsites'],0.0,92328,Death Valley
281,22C22378-2697-4D14-B5F7-E8BAD9B7033D,Horse Camp,whis,40.57611111,-122.531388889,2,0,['Limited Development Campground'],20.0,96095,Whiskeytown
282,27EBFE30-BE1A-4511-9244-CF83F67E3085,Horse camping,asis,38.19282100055179,-75.1574710003365,2,0,['Limited Development Campground'],80.0,21811,Berlin
283,96423246-D213-41C2-860C-34DF71149E34,Horsepen Branch Hiker-Biker Campsite,choh,39.06938,-77.398038,0,1,['Primitive Camping Areas'],0.0,20837,Poolesville
284,13B7970B-039E-415E-900A-E1E1A2C7B032,Horseshoe Bend Campground,bica,44.96,-108.26,10,38,['Developed Campground'],35.0,82431,Lovell
285,80B2AD5E-92D0-4BF8-90C4-92349E09338E,Horseshoe Bend Hiker-Biker Campsite,choh,39.486903,-77.774341,0,1,['Designated Primitive Campsites'],0.0,21782,Mercersville
286,75216514-60C2-4262-9107-35122A9194AC,Hosmer Grove Campground,hale,20.768155,-156.237592,6,0,['Limited Development Campground'],5.0,96790,Kula
287,8F0F105B-48D2-41FE-9B50-CB1A1B1952AB,Houchin Ferry Campground,maca,37.2016901005,-86.2377215005,12,0,['Designated Primitive Campsites'],20.0,42210,Brownsville
288,5F2991D3-8D31-4DF0-9E00-5351349391AF,Hovenweep Campground,hove,37.3832032699,-109.070815001,0,31,['Limited Development Campground'],20.0,81321,Cortez
289,AD024FB6-EE7E-4DC0-A151-5A09F7A35B02,Hozomeen Campground,noca,48.9871,-121.0711,0,75,['Limited Development Campground'],0.0,,
290,129ADE5E-5C43-4F6F-85E3-2F69DC82217D,Huckleberry Hill Hiker-Biker Campsite,choh,39.34152,-77.75747000000001,0,0,[],0.0,21740,Hagerstown
291,12DB0F9A-5D56-4117-B66A-A66C6A1C2E33,Huginnin Cove Campground,isro,47.934272022481146,-89.17647822364461,0,5,['Primitive Camping Areas'],0.0,49931,Houghton
292,0D61BB7D-56EC-4B90-870B-C54B4B23F627,Hunters Campground,laro,48.1255472978347,-118.231331985386,37,0,['Limited Development Campground'],23.0,99137,Hunters
293,4F237B6C-D314-4A2C-ADBF-1A86D0DCC98A,Hunters Group Sites,laro,48.12544,-118.230877,3,0,['Limited Development Campground'],55.0,99137,Hunters
294,06069540-A17B-448D-BFE2-4F84CF26ABC1,Hurricane River Campground,piro,46.663953,-86.1661587,21,0,['Limited Development Campground'],25.0,49839,Grand Marais
295,3B299906-24BA-44F3-A0BA-A054245F7615,Igloo Creek,dena,63.60969751677842,-149.583358087987,7,7,['Primitive Camping Areas'],21.75,,
296,E456A79A-B17D-4D7C-8866-C3FFE9290283,Indian Cove Campground,jotr,34.0934671521967,-116.15885356362554,101,0,['Limited Development Campground'],20.0,92277,Twentynine Palms
297,31A8FCDE-C07A-465F-BABA-0AD338ED9938,Indian Creek Campground,yell,44.88702324775696,-110.73606858357869,70,0,['Limited Development Campground'],20.0,82190,Yellowstone National Park
298,AF40345B-C2EC-4ED5-8E47-BD195FE6972E,Indian Flats Hiker-Biker Campsite,choh,39.233516,-77.462711,0,0,[],0.0,20842,Dickerson
299,EAA2FD98-4F5D-4533-B65A-A11F73AA4494,Indian Well Campground,labe,41.7174707355158,-121.504144731988,1,43,['Developed Campground'],10.0,96134,Tulelake
300,2133A176-466F-4A3E-8B74-AF4AC2E1B2AA,Indigo Neck Hiker-Biker Campsite,choh,39.626697,-78.358666,0,1,['Primitive Camping Areas'],0.0,21766,Little Orleans
301,A8605BC4-C81C-4F67-8AC3-FC14363304C3,Intermediate Lake Campground,isro,48.0337769036068,-88.72265854573033,0,3,['Primitive Camping Areas'],0.0,49931,Houghton
302,1B582C8D-FD73-4E42-8EBE-8E4C00DC7535,Irons Mountain Hiker-Biker Campsite,choh,39.58747900000001,-78.73558400000002,0,0,[],0.0,21740,Hagerstown
303,A7F66044-BE85-43D4-8BCF-7475CF00018E,Island Mine Campground,isro,47.93022395196004,-89.03997478443017,2,4,['Primitive Camping Areas'],0.0,49931,Houghton
304,26404A2A-AB76-4A51-9707-39D0E6E3368D,Island in the Sky (Willow Flat) Campground,cany,38.3833807187,-109.888129255,0,12,['Limited Development Campground'],15.0,84532,Moab
305,A2B6DE41-CD49-4109-9EB4-AA32B6A82568,Jedediah Smith Campground,redw,41.79572647634519,-124.0864474439352,86,0,['Developed Campground'],35.0,95531,Crescent City
306,CC65EA50-831C-4C71-ABD1-3C32D780E4D4,"Jeff Busby Campground, Milepost 193.1",natr,33.4171640485,-89.2673709764,0,18,['Limited Development Campground'],0.0,39735,Ackerman
307,5A3B6615-6E41-47CD-A13A-A717684296E5,Jenny Lake Campground,grte,43.7552631986,-110.719393468,51,10,['Developed Campground'],49.0,83012,Moose
308,F626FF38-1C87-48C9-81F2-D13B8FFBEB8A,Jones Bay Campground,laro,47.9198995489921,-118.582833386076,9,0,['Limited Development Campground'],23.0,99185,Wilbur
309,B89F33B9-4FDD-49EE-8FA4-BF2AB74AFFB5,Jordan Junction Hiker-Biker Campsite,choh,39.60919199999999,-77.85283,0,1,['Designated Primitive Campsites'],0.0,21795,Williamsport
310,04662D80-18F0-4E2C-8C6A-461E244DB0A7,Julian Price Park Campground,blri,36.1203493459,-81.7652698731,92,98,['Developed Campground'],20.0,28605,Blowing Rock
311,6742B85D-65DA-447C-95C2-80E110AA5E6A,Jumbo Rocks Campground,jotr,33.99075644553917,-116.05925183764724,124,0,['Limited Development Campground'],20.0,92277,Twentynine Palms
312,4A56E4A8-59E9-4766-9E89-677CF4B1C88D,Juniper Basin,sagu,32.182818,-110.644513,0,0,[],,85730,Tucson
313,77017AF3-91BF-4166-BE1E-F17D903294ED,Juniper Campground,thro,47.59524746300008,-103.333156762,1,50,['Developed Campground'],14.0,,
314,B4212C55-8FAB-495E-9A12-DE6D57EB91D4,Juniper Family Campground,band,35.795338186866466,-106.27904543051932,2,50,['Developed Campground'],12.0,87544,Los Alamos
315,EE0BEF31-3C7D-4249-A131-156D31114388,Juniper Lake Campground,lavo,40.4496486561308,-121.296461605835,3,18,['Limited Development Campground'],12.0,96020,Chester
316,F8DFAB23-EFE0-4F31-98D0-CD5A871596A9,Kalaloch Campround,olym,47.6127053601112,-124.375074131062,170,0,['Developed Campground'],24.0,,
317,BE7AB8F1-8ED2-40DA-A2DB-B4C7F7EC3531,Kamloops Island Campground,laro,48.6783241500684,-118.117008793336,17,0,['Limited Development Campground'],23.0,99141,Kettle Falls
318,5867E623-661C-49E1-ADC1-DFACA828D8F0,Katahdin Brook Lean-to,kaww,45.9204007640828,-68.7628803658878,0,1,[],0.0,,
319,3A9DB923-A81D-49F3-83F3-F26ABB6F8E28,Katherine Landing Campground (Lake Mohave),lake,35.223175690624814,-114.55677723796998,0,0,[],,,
320,B00EBE13-43A0-4456-BFAD-D7C35A0B469B,Katherine Landing RV Park (Lake Mohave),lake,35.22234390934542,-114.56200692629524,0,0,[],,,
321,3D4EA3B5-B5B3-42B5-94C8-35A39D6A2893,Kendesnii Campground,wrst,62.52982,-143.258776,0,10,['Limited Development Campground'],0.0,99586,Nabesna
322,E6B4725F-B2C0-4E4B-BD4C-D15EC8CF6212,Kettle Falls Campground,laro,48.6015176486769,-118.1235712706458,74,0,['Developed Campground'],23.0,99141,Kettle Falls
323,476252BB-E411-46A7-BC5C-77CCE0281781,Kettle River Campground,laro,48.71593087397785,-118.12268733306188,13,0,['Limited Development Campground'],23.0,99107,Boyds
324,A610C577-66D8-4544-9F6F-62FF55803C8F,Killiansburg Cave Hiker-Biker Campsite,choh,39.45920199999999,-77.796583,0,1,['Primitive Camping Areas'],0.0,21782,Sharpsburg
325,BCE824F6-C326-4753-9D3D-916A93A690ED,Kintla Lake,glac,48.935745209091245,-114.34593003158407,0,13,['Limited Development Campground'],15.0,59936,West Glacier
326,E432BD79-E5A8-4989-8F03-ADF9683A95A2,Kirby Cove Campground,goga,37.82790211736253,-122.49039346494745,6,0,['Limited Development Campground'],40.0,94965,Sausalito
327,A859E76B-FA23-43CE-8BED-904FB4D41B60,Kulanaokuaiki,havo,19.3436666463,-155.274076368,0,9,['Designated Primitive Campsites'],10.0,96718,Hawaii National Park
328,0B860B12-04E9-46DB-A1C3-E7FBA8B1A3DE,Kyles Landing,buff,36.0557786001,-93.2807538999,0,33,['Developed Campground'],20.0,72641,Jasper
329,D24D8C58-DF08-4A80-BC5F-531E6F086A1B,Kīpahulu Campground,hale,20.659705,-156.044492,9,0,['Limited Development Campground'],8.0,93713,Hāna
330,D8737D28-750B-4C8D-9E0D-78F327C77CBB,Lake Fork Campground,cure,38.4548253084593,-107.326981170259,57,19,['Developed Campground'],16.0,,
331,C838D310-D10F-4670-91C8-E375C0F294F4,Lake Mead RV Village (Lake Mead),lake,36.03503,-114.800453,115,0,[],,,
332,5B9B3451-F0DD-4BD3-9EB7-7AEF691285DD,Lake Richie Campground,isro,48.05134221029036,-88.68736051726773,2,4,['Primitive Camping Areas'],0.0,49931,Houghton
333,56BEF8CE-2E4F-467E-B548-3B8DB0E28C92,Lake Richie Canoe Campground,isro,48.04382454287261,-88.70018995569336,0,3,['Primitive Camping Areas'],0.0,49931,Houghton
334,BCBF894F-DF97-4EAE-804B-CAF0E4237A8B,Lake Whittlesey Campground,isro,48.007628545489816,-88.7070852277252,0,3,['Primitive Camping Areas'],0.0,49931,Houghton
335,A8B8F6C0-8C37-4293-8A52-A332FE879B00,Lakeview Campground,noca,48.3079,-120.6544,9,0,['Limited Development Campground'],20.0,,
336,1617F7AB-6DAA-4571-AD88-DCFBC7AC6DC5,Lane Cove Campground,isro,48.14490683133697,-88.55767854958867,0,5,['Primitive Camping Areas'],0.0,49931,Houghton
337,2358E196-5E36-4A03-842F-C2C6FE81EFFD,Las Vegas Bay Campground (Lake Mead),lake,36.12784458588996,-114.87256967216256,0,84,['Developed Campground'],20.0,89005,Boulder City
338,655E8DDE-9586-447E-B531-A93B31EEE1A0,Lava Flow Campground,crmo,43.46070030861083,-113.55913194531864,0,42,['Developed Campground'],15.0,83213,Arco
339,B30A5B7D-0343-4E47-97E3-CBBAC4700D6B,Lava Point Campground,zion,37.38387909363943,-113.03284569282364,6,0,[],,,
340,047E1B9A-FF2B-4BD0-B98A-65ED0857639C,Lees Ferry Campground,glca,36.8593470173641,-111.606274705221,0,54,['Limited Development Campground'],20.0,86036,Marble Canyon
341,0477F54F-BBA5-4418-96C9-262FD30FEFC3,Leopards Mill Hiker-Biker Campsite,choh,39.65192764428288,-78.24015520133435,0,1,['Designated Primitive Campsites'],0.0,21750,Hancock
342,86643A75-55AF-4A7F-ADD1-DE35E379BB7F,Lewis Lake Campground,yell,44.28220565002496,-110.62798728261384,85,0,['Limited Development Campground'],20.0,82190,Yellowstone National Park
343,BAC9E60C-2FD0-479D-B676-1EB623EDAE60,Lewis Mountain Campground,shen,38.43556,-78.478096,0,30,['Developed Campground'],30.0,22827,Shenandoah
344,29887D47-54ED-4C49-A7FB-B49AB60DCCE4,Licking Creek Hiker-Biker Campsite,choh,39.650294,-78.04877600000002,0,0,[],0.0,21711,Pool
345,C32CB41B-1C35-454B-B9FD-AE3F71EEBDC8,Linville Falls Campground,blri,35.9671524465,-81.9326240728,39,25,['Developed Campground'],20.0,28752,Linville Falls
346,A63DE856-B573-4F34-A8AC-8F2BE146C442,Little Beaver Lake Campground,piro,46.5575,-86.3638,8,0,['Limited Development Campground'],25.0,49884,Melstrand
347,FBDC47A8-40CD-4BE7-B588-7DD0D89ADF82,Little Pool Hiker-Biker Campsite,choh,39.68477600000001,-78.11312500000001,0,0,[],0.0,21750,Hancock
348,5FEBB647-6237-4F47-B304-95C564E66B3D,Little Todd Campground,isro,48.02025595545948,-88.92666555449784,0,4,['Primitive Camping Areas'],0.0,49931,Houghton
349,E0080EF8-EB48-4573-A23C-A7CDD2B75F76,Lizard Creek Campground,grte,44.0034692521,-110.688659309,60,0,['Developed Campground'],48.0,83013,Moran
350,E5093CF2-87B9-4099-840B-56BF12701918,Locust Grove Group Sites,laro,48.592901,-118.114979,2,0,['Limited Development Campground'],55.0,99141,Kettle Falls
351,F727B83F-B8CB-49AC-A0EC-76DFAB6140FE,Lodgepole Campground,seki,36.60577263264627,-118.7268830432024,214,0,['Developed Campground'],28.0,93262,Lodgepole
352,BFBDA380-305A-4821-BB62-C72A939C78FC,Loft Mountain Campground,shen,38.246415,-78.67070100000001,141,50,['Developed Campground'],30.0,22932,Crozet
353,4CA589A7-8776-4E8E-BFB7-E5D1EF2E65E8,Logging Creek,glac,48.69845476183268,-114.19165560397356,0,7,['Primitive Camping Areas'],10.0,59936,West Glacier
354,BF0E7B53-5990-4465-8242-172A24A0083A,Lone Rock Beach Primitive Camping Area,glca,37.016159934,-111.540346568,0,10000,['Primitive Camping Areas'],14.0,86040,Greenehaven
355,AE149158-1191-4835-8457-E6E899F5EA48,Long Pine Key Campground,ever,25.3979002291,-80.6569697813,108,108,['Developed Campground'],33.0,33034,Homestead
356,457CE0AF-DC49-4203-8647-55410C7B9FE1,Longleaf Campground,cong,33.8357177464838,-80.82739767307794,14,14,['Limited Development Campground'],15.0,,
357,F7CE47A2-A770-449F-8085-0DF17DD432EB,Longs Peak Campground,romo,40.27479364272779,-105.55770432202075,0,26,['Developed Campground'],30.0,,
358,406AC787-B7E7-4DE6-AB62-ABDCD4D358FA,Look Rock Campground,grsm,35.63690474693128,-83.93614247447806,68,0,['Developed Campground'],36.0,37878,Walland
359,71D71180-EFB3-4888-8B2C-5474107CC139,"Lost Creek Campground, elevation 6,000 feet (1,829 meters)",crla,42.87974939365855,-122.03871121690514,0,16,['Limited Development Campground'],5.0,97604,Crater Lake
360,864E3CD2-E953-4811-8DB0-07BB2544F6D2,Lost Creek Group Campground,lavo,40.56184114262118,-121.51771884547507,8,0,['Developed Campground'],62.0,96088,Shingletown
361,9FF275B6-E645-4860-A614-19463177E32B,Lower Goodell Creek Group Campground,noca,48.67657475935347,-121.27136454780918,2,2,['Limited Development Campground'],75.0,98284,Sedro-Woolley
362,EAAFABA8-59A2-4CBD-8F9F-89C7C2B1FF8D,Lower Lehman Campground,grba,39.01737,-114.23798,0,11,['Developed Campground'],20.0,,
363,4C3C4954-FA9C-4C58-B6CF-E66054E1F0EF,Lower Pines Campground,yose,37.7394658916,-119.566313767,73,0,['Developed Campground'],36.0,95389,Yosemite
364,CDA8256A-9CBB-4965-95FC-E3BDA19D1DF9,Lower Scorpion Campground,gicl,33.229944,-108.25757,0,7,['Limited Development Campground'],,,
365,16DA32CA-C0E9-4AF2-A6BD-39AD52887B80,Lower St. Croix District,sacn,45.253281,-92.760328,0,19,['Primitive Camping Areas'],0.0,,
366,C4863E55-CDB6-4BE8-9E1B-4AE5AE18962D,Lowney Creek Group Backpacking Site,piro,46.557203,-86.344702,1,0,[],5.0,,
367,44BCA8F4-F3F0-469E-9F2C-5B76A9978677,Lowney Creek Individual Backpacking Sites,piro,46.558462,-86.33977,4,0,[],5.0,,
368,14A6565A-E77A-45D7-9F6D-67BF3FEA2251,Lunksoos Campsites,kaww,45.908436,-68.613925,0,7,[],0.0,04765,Patten
369,C6AE22BE-6AE8-4D98-BF0D-48F24D7C8B98,Lunksoos Mountain Lean-To,kaww,45.9569815730881,-68.7016996665859,0,1,['Designated Primitive Campsites'],0.0,,
370,66DFF49B-F1DC-49BB-A3CF-9F007330450D,Madison Campground,yell,44.6454215492,-110.861302682,278,0,['Developed Campground'],33.0,82190,Yellowstone National Park
371,C56C81F5-BF2C-481C-A63E-FFAB374F5664,Mahogany Flat Campground (Primitive),deva,36.23,-117.068377,0,9,['Designated Primitive Campsites'],0.0,92328,Death Valley
372,4DAAC939-A3E4-4CDA-AEE6-2C6B5B7BF499,Malaquite Campground,pais,27.43023,-97.296189,0,48,['Developed Campground'],14.0,78418,Corpus Christi
373,F8782C74-5524-40BD-9FFE-1B2FB984136B,Malone Bay Campground,isro,47.98524426035943,-88.80722670151698,2,5,['Limited Development Campground'],0.0,49931,Houghton
374,5B664E0A-C138-40B1-BAD2-17E27200DFD9,Mammoth Campground,yell,44.97360954829384,-110.69323158293622,85,0,['Developed Campground'],25.0,82190,Yellowstone National Park
375,B637FEC0-7F4B-4A54-BD13-7EBE26DDEF19,Mammoth Cave Campground,maca,37.1821894000506,-86.09704310043361,109,2,['Developed Campground'],25.0,42259,Mammoth Cave
376,593D7585-DD7B-43C6-88E3-73FAB6299D0B,Manning Camp,sagu,32.207386,-110.554542,6,6,['Limited Development Campground'],8.0,85730,Tucson
377,E6C99AFB-B842-4840-BD72-A4C028E0C06F,Many Glacier,glac,48.7964957236,-113.677619731,110,0,['Developed Campground'],23.0,59936,West Glacier
378,D62E0AD6-E402-4D82-B250-236876F667A3,Manzanita Lake Campground,lavo,40.5278515681602,-121.563186589946,179,0,['Developed Campground'],26.0,96088,Shingletown
379,2EE3B5DE-9EC1-4AB0-AB15-F807746F722C,Maple Springs Group Campground,maca,37.204205,-86.136092,8,0,['Limited Development Campground'],50.0,42259,Mammoth Cave
380,C8186F5C-7EC1-4DCE-A261-02C2C3FEDDFA,Marble Quarry Hiker-Biker Campsite,choh,39.17955799999999,-77.492708,0,1,['Designated Primitive Campsites'],0.0,20837,Poolesville
381,15655876-DFFA-4A3A-8EA8-FE4F4F0F0559,Marcus Island Campground,laro,48.66873219217245,-118.0573682671282,25,0,['Limited Development Campground'],23.0,99151,Marcus
382,B9CCD51F-22E2-45C1-A3E4-F352999558FF,Marcus Wilderness Campground,gumo,31.981171147850624,-104.87685414903676,5,0,['Designated Primitive Campsites'],6.0,,
383,4A67D2E9-712F-445A-80F8-330CB66FFDCE,Marsden Tract Group Campground,choh,38.97679701853521,-77.21484911273555,6,0,[],40.0,,
384,0CBEC1FE-AEED-4AA7-BE9F-7A25E9EB602B,Masse Homestead Group Backpacking Site,piro,46.6468043665,-86.0956764204,1,0,[],5.0,,
385,FFC19C0E-A862-4F84-A269-BBE89791789F,Masse Homestead Individual Backpacking Sites,piro,46.647693,-86.090932,3,0,[],5.0,,
386,CBEBF627-E888-45E6-9E8C-6EA6AE9A1B2D,Mather Campground - South Rim,grca,36.04918080776177,-112.11849726539116,300,15,['Developed Campground'],18.0,86023,Grand Canyon
387,C4944EF0-E744-47F8-ACEB-F6283723AFCA,Mathews Arm Campground,shen,38.763144,-78.29638799999998,112,47,['Developed Campground'],30.0,22835,Luray
388,739CE881-991F-42CE-885B-3F0410D82ED5,Maumee South,buff,36.0394860005,-92.635645801,0,0,['Primitive Camping Areas'],0.0,72650,Marshall
389,ADCAAE21-0B87-4379-A710-73E70566AA92,Mazama Campground,crla,42.86862146054785,-122.1677826463598,214,0,['Developed Campground'],21.0,97604,Crater Lake
390,91B3E7C5-3AEE-44DF-B806-3A9468D334C9,McBride Canyon and Mullinaw Creek Campgrounds,lamr,35.529449,-101.759431,0,40,['Primitive Camping Areas'],0.0,,
391,9D2E311B-C207-4DCF-94B3-DE542132D2C3,McCargoe Cove Campground,isro,48.08719604689656,-88.70934934701029,3,9,['Limited Development Campground'],0.0,49931,Houghton
392,A93DCCB5-EE82-4091-9744-387D1649C0C0,McKittrick Ridge Wilderness Campground,gumo,31.974347732744395,-104.80822691423316,8,0,['Designated Primitive Campsites'],6.0,,
393,14751579-DBB7-4045-8558-93B39B25E616,McMillan Woods Youth Campground,gett,39.8210049992,-77.2461709993,10,10,['Limited Development Campground'],0.0,17325,Gettysburg
394,C70FF8AC-BE33-4C34-B4E4-F144C6D60275,Mccoys Ferry Campground,choh,39.60923039169212,-77.9666398364306,13,0,[],40.0,,
395,10EE7534-B7D7-4A2A-B8A2-AAE5628429F9,Meadow Creek Campground,neri,37.79789071761994,-80.92104624026769,0,0,['Primitive Camping Areas'],0.0,25977,Sandstone
396,0E90E11A-C131-4AEA-AADD-C14042C04B23,Medano Pass Primitive Road Campsites,grsa,37.803519,-105.495654,0,21,['Designated Primitive Campsites'],0.0,,
397,59D597C2-D37E-41A8-AEBA-FA0D219280D4,Medicine Creek Campground,bica,45.1101806592348,-108.20431158086,0,8,['Designated Primitive Campsites'],0.0,82431,Lovell
398,E525405F-CD51-455B-BB8A-375D58C6636E,"Meriwether Lewis Campground, Milepost 385.9",natr,35.5224918473591,-87.4556851746386,0,32,['Limited Development Campground'],0.0,38462,Hohenwald
399,65BC7988-F9D6-475A-9FD7-C3E0E0C66C06,Merritt Lane Campground,isro,48.18459316327891,-88.42965712508789,0,2,['Limited Development Campground'],0.0,49931,Houghton
400,75B2EF77-B8A3-4FAB-8E68-B4C9D7894F68,Mescalero Wilderness Campground,gumo,31.9526879019085,-104.847984983904,8,0,['Designated Primitive Campsites'],6.0,,
401,B60A752C-4A67-4A7F-806F-2876DF00243E,Mesquite Spring Campground,deva,36.9636498079,-117.367774161,0,40,['Limited Development Campground'],7.0,92328,Death Valley
402,90B166B3-6065-41B2-9190-9F5AF76D9D8D,Mid-Hills Campground,moja,35.129920417840985,-115.43579157586493,0,26,['Limited Development Campground'],12.0,92311,Barstow
403,8D116916-7528-4629-B983-99F5D19C4668,Middle St. Croix,sacn,45.773341,-92.781074,0,57,['Primitive Camping Areas'],0.0,,
404,4C753B83-8E55-4969-A918-7CF37BEBEF34,Midway Campground,bicy,25.851926,-80.989444,36,0,['Developed Campground'],30.0,34141,Ochopee
405,6656707B-F876-4334-9150-730DC35BAC97,Mill Creek Campground,redw,41.702724169382016,-124.09778463073394,145,0,['Developed Campground'],35.0,95531,Crescent City
406,60569FBD-2B27-45BD-9FF7-68722E5BF02D,Mitchell's Landing,bicy,25.7564496482,-80.9305981752,11,0,['Limited Development Campground'],24.0,34141,Ochopee
407,D7BA07C5-8453-4E03-A178-2C20AB591360,Mohican Outdoor Center,dewa,41.0350165004,-75.0010072019,8,7,[],,07825,Blairstown
408,AC717D5E-F55A-4539-AC8E-4B4C5009ABBB,Monument Lake,bicy,25.8684663476,-81.1131314752,36,0,['Developed Campground'],28.0,34141,Ochopee
409,1F9A5CA2-8D09-4444-ABD6-532B22C404B7,Mora Campground,olym,47.9168610105267,-124.60593738701,94,0,['Developed Campground'],24.0,98331,Forks
410,97A7C642-B9C6-463B-8FAC-B9480FE5503A,Moraine Campground,seki,36.78521626309886,-118.66105680282118,121,0,['Developed Campground'],28.0,93633,Kings Canyon National Park
411,D322E1E9-8058-4C42-80A3-9FBC82583190,Moraine Park Campground,romo,40.36066149616986,-105.60006623223796,239,0,['Developed Campground'],30.0,80517,Estes Park
412,D00BE92E-B246-4C6E-8CDD-77F437678AF2,Morefield Campground,meve,37.3014992738134,-108.417912473544,267,267,['Developed Campground'],38.0,81330,Mesa Verde National Park
413,AC9D778B-7792-420B-A55A-6E1AA558042F,Moskey Basin Campground,isro,48.06298074914441,-88.64516328280524,2,8,['Limited Development Campground'],0.0,49931,Houghton
414,F4C0B48E-944E-42FC-9E18-D579786BBC93,Mosquito River Group Backpacking Site,piro,46.5226013349,-86.4938020699,1,0,[],5.0,,
415,38CA8E50-5BB0-4592-9992-0600AD177834,Mosquito River Individual Backpacking Sites,piro,46.527061,-86.492008,5,0,[],5.0,,
416,1B9BB56F-9FF5-4AD4-B966-F3B7310AED49,Mount Pisgah,blri,35.40286804539159,-82.75691997303858,53,72,['Developed Campground'],20.0,28803,Asheville
417,7FDEE7A6-EB52-43E9-A4D8-193545AB5207,NPS Priest Rock Public Use Cabin,lacl,60.3093333056,154.177,0,0,[],,,
418,7BBD3378-FC3C-46E4-9DF8-2F2AFFA92C2E,Namekagon District,sacn,45.905263,-91.815991,0,67,['Designated Primitive Campsites'],0.0,,
419,3D8B7A3D-BC50-4270-8CD1-631D13A15C62,Natural Bridges Campground,nabr,37.60921843789215,-109.98419312147183,0,13,['Limited Development Campground'],16.0,84511,Blanding
420,F1D0E963-7D3A-4CDF-A5CC-1759D8994679,Naval Live Oaks Youth Group Camping,guis,30.3689892485485,-87.1423119758788,1,0,['Limited Development Campground'],20.0,32563,Gulf Breeze
421,C772BBDA-274E-40A2-B213-3C7B8127E6A7,Newhalem Creek Campground,noca,48.671,-121.261,107,0,['Developed Campground'],24.0,98284,Sedro-Woolley
422,6B63B182-983C-41D9-82F7-F879170A3517,Norris Campground,yell,44.73784854861962,-110.69361508287096,112,0,['Limited Development Campground'],25.0,82190,Yellowstone National Park
423,17B8A379-66C5-4225-8EE3-2D3CB3CF0CA4,North Campground,brca,37.638096,-112.167922,96,0,['Developed Campground'],20.0,84764,Bryce
424,8EB31DC6-1B15-4036-87CA-F97589FC77DD,North Desor Campground,isro,47.98085044383097,-88.99386540717819,0,3,['Primitive Camping Areas'],0.0,49931,Houghton
425,FFD42463-76E6-4540-898A-0A70A8A8F747,North Fork Campground,olym,47.5698520216,-123.650803296,0,9,['Designated Primitive Campsites'],20.0,98362,Port Angeles
426,BF1EF0FB-866C-41EC-AE20-39C588D6250A,North Gorge Campground,laro,48.786475673529154,-118.00328863260133,12,0,['Limited Development Campground'],23.0,99126,Evans
427,E9D964EF-67FA-4F51-8ECC-56FD621F7AD7,North Mountain Hiker-Biker Campsite,choh,39.610663,-77.959636,0,1,['Designated Primitive Campsites'],0.0,21722,Clear Spring
428,BDF9737C-DD6E-457F-9ADC-501B07851F77,North Pines Campground,yose,37.7404163398378,-119.565030847118,80,0,['Developed Campground'],36.0,95389,Yosemite
429,E6979811-AC94-41A2-BD7A-8C17B8D0111D,North Rim Campground,grca,36.208690159698094,-112.05997437790796,78,0,['Developed Campground'],18.0,86052,North Rim
430,FCA57A5F-BC58-44D8-83BD-EDC0FC9CCB17,North Rim Campground,blca,38.58518332872675,-107.70942777084946,0,13,['Limited Development Campground'],16.0,81415,Crawford
431,46225547-072D-45AA-9261-558B27D92DB4,Nāmakanipaio,havo,19.4253736529641,-155.295878745916,16,16,['Limited Development Campground'],15.0,96718,Hawaii National Park
432,1D88A5D2-1AC6-4B07-9295-E666F1736B95,Oak Ridge Campground,prwi,38.60042021817536,-77.41609901660377,95,0,['Developed Campground'],26.0,22172,Triangle
433,EB7177AD-9252-4CAD-B85D-08D9BE25AA25,Oceanside Drive-in Campground,asis,38.20161059949485,-75.15386509969085,16,0,['Limited Development Campground'],40.0,21811,Berlin
434,27416013-2F23-4D0A-86FA-42FC24D7A03E,Oceanside Group Campground,asis,38.20377,-75.1524,5,0,['Limited Development Campground'],80.0,21811,Berlin
435,B9B39C25-D4C1-47AE-B02A-AC0E6CB93DCB,Oceanside Walk-in campground,asis,38.1948063,-75.1564668,21,0,['Limited Development Campground'],40.0,21811,Berlin
436,E8C25071-8A67-42F8-8160-66BF81E8C450,Ocracoke Campground,caha,35.12571784418955,-75.92241525650024,131,0,['Developed Campground'],28.0,27960,Ocracoke
437,EE30401B-4172-4BBA-91AE-B63EAE532367,Ohanapecosh Campground,mora,46.73599667059602,-121.56684815883636,129,50,['Developed Campground'],20.0,,
438,D02FA068-BF79-4A17-8621-533DFE01DDF0,Opequon Junction Hiker-Biker Campsite,choh,39.51593300000001,-77.860112,0,1,['Primitive Camping Areas'],0.0,21795,Williamsport
439,C2BA0A25-CF73-48EB-8B4C-29E16D6E52B5,Oregon Inlet Campground,caha,35.80027781,-75.545,107,0,['Developed Campground'],28.0,27959,Nags Head
440,AACB05F2-F5E2-47CF-8D26-EE42B70DF978,Otter Creek,blri,37.5756939454,-79.3374360711,29,39,['Developed Campground'],20.0,24526,Big Island
441,90965E82-9EC7-4D1E-A5FA-4AE939B549B5,Owens Creek Campground,cato,39.6596869874,-77.4866425571,50,0,['Developed Campground'],30.0,21780,Sabillasville
442,5CEA9F21-8CBB-4B5D-AB2F-7D6FC31AE52E,Ozark Campground,buff,36.0640098001,-93.1598566994,0,31,['Developed Campground'],20.0,72641,Jasper
443,24D983CD-F853-49B3-A368-25DC3832F628,Ozette Campground,olym,48.1532400873933,-124.667693189397,0,15,['Limited Development Campground'],20.0,98362,Port Angeles
444,AB0F4BC2-8EFF-4138-94F3-98F3F910FDE2,Paul Grist State Park,semo,32.591452,-86.99976,0,0,[],,,
445,18876B25-BB2B-4507-B2F6-0949C995BCED,Paw Paw Tunnel Campground,choh,39.54423610033746,-78.46148084682035,10,0,[],20.0,,
446,9D607267-5063-463F-8487-DF928F788339,Peaks of Otter Campground,blri,37.443384745,-79.6049784725,61,78,['Developed Campground'],20.0,24523,Bedford
447,FB8D1AFA-AD1F-48F1-AFF4-B649857B6D61,Pebble Creek Campground,yell,44.91698134898363,-110.11380838340916,27,0,['Developed Campground'],20.0,82190,Yellowstone National Park
448,15CB8D4F-5780-4293-95DE-153674F84667,Peltier Bridge,whis,40.5857833,-122.5518167,9,0,['Limited Development Campground'],20.0,96095,Whiskeytown
449,CC016A4C-E0FA-4042-A148-5A1AA75E5AAD,Pickerel Cove Campground,isro,48.1245169558947,-88.65218294378656,0,1,['Primitive Camping Areas'],0.0,49931,Houghton
450,7CB28D9D-073D-4493-9D2C-CA3004484378,Pigmans Ferry Hiker-Biker Campsite,choh,39.53895800000001,-78.650428,0,0,[],0.0,21740,Hagerstown
451,1A2D2E59-3F76-493A-86AA-8CCCDD8C47D2,Pine Bluff Individual Backpacking Sites,piro,46.586272,-86.328552,5,0,[],5.0,,
452,4356D077-AE68-4822-B67E-3CF48A8BBDDB,Pine Springs Campground,gumo,31.89526173069205,-104.8263406925024,35,0,['Developed Campground'],20.0,79847,Salt Flat
453,0A45C29D-7CE3-455D-BA28-1C982B68F5A6,Pine Top Wilderness Campground,gumo,31.9185398240834,-104.845801986861,8,0,['Designated Primitive Campsites'],6.0,,
454,63A57214-A247-405D-ACBD-254D56A1FDE7,Pinecrest,bicy,25.7615555478,-80.9180630747,4,0,['Primitive Camping Areas'],30.0,34141,Ochopee
455,F5482EE1-0DC2-473D-AB4E-A6132ECFEF2D,Pink Jeep,bicy,26.21633104790597,-81.29514337546641,0,9,['Primitive Camping Areas'],10.0,34101,Ochopee
456,B55ABE9A-E5AF-4A4E-AACE-7299165831F5,Pinnacles Campground,pinn,36.4898445958,-121.148968014,134,5,[],39.0,95043,Paicines
457,F3D4A32A-B2CA-4E38-B049-C90164E4540A,Piñon Flats Campground,grsa,37.7449368560859,-105.504703076291,91,0,['Developed Campground'],20.0,81146,Mosca
458,64C7EA2F-FCB4-47A3-A19E-D6ED6EADF6F6,Platte River Campground,slbe,44.71551,-86.119114,179,0,['Developed Campground'],31.0,49640,Honor
459,625ECC9F-CC94-4173-9F41-6B6C72A0EB1A,Pleasant Camp,klgo,59.6385221,-135.2937064,11,0,[],54.6,99840,Skagway
460,49F2E692-7A04-488E-BEED-C4C0E195B1E2,Plum Creek Campgrounds,lamr,35.516667,-102.78333,0,45,['Primitive Camping Areas'],0.0,79036,Fritch
461,1827DF3F-1EC6-4A91-9A57-8BD6CEE2039B,Point Supreme Campground,cebr,37.6103850583356,-112.830926692645,25,0,['Developed Campground'],24.0,,
462,87AC7E6E-5020-4E63-ADC1-90BA6D3F73CE,Pond Pitch Campsite,kaww,46.0633204470942,-68.7548784505108,0,1,['Designated Primitive Campsites'],0.0,,
463,344FA89E-5F8A-49FC-A1E2-7F584B355393,Ponderosa,band,35.8328556589,-106.356758549,2,0,[],35.0,87544,Los Alamos
464,0F440585-6E8F-4D63-AC22-92312953FB5E,Ponderosa Campground,cure,38.5257080480139,-107.314899399111,0,0,['Limited Development Campground'],16.0,,
465,761D857A-D5D4-4FAE-8E66-952DE2052224,Poplar Grove Youth Group Tent Campground,cato,39.6558291260591,-77.47561993940099,3,0,['Limited Development Campground'],35.0,,
466,37A2C529-C63B-42B4-8AE1-DC0611B34690,Popple Campground - South Manitou Island,slbe,45.046024,-86.116205,0,7,['Designated Primitive Campsites'],10.0,49630,Empire
467,E725A627-101C-486D-92CE-D4798A742BB1,Porcupine Bay Campground,laro,47.8945931616,-118.175135367,20,0,[],,,
468,AFD1869B-19F1-4C47-9B9B-75A6625C7A6D,Porcupine Flat Campground,yose,37.8082397641,-119.565691823,52,0,['Limited Development Campground'],24.0,,
469,5EAA1F18-E950-4FE7-83D5-2D00F4471177,Potato Patch Individual Backpacking Sites,piro,46.497249,-86.530046,3,0,[],5.0,,
470,9F588F02-DC9B-4573-B868-1A0B600BA1F3,Potomac Forks Hiker-Biker Campsite,choh,39.53094000000004,-78.58897499999999,0,0,[],0.0,21740,Hagerstown
471,191F3831-AC51-41B2-8BAB-92A4D1BC7685,Potwisha Campground,seki,36.51650783772912,-118.80083536436518,40,0,['Developed Campground'],28.0,,
472,6C955DB8-0800-422C-8198-F6E1DC7BA46C,Prairie Creek,semo,32.3336736,-86.7701881,0,0,[],,,
473,36C60550-B5BE-4D8D-AFA3-F87E545CA54A,Primitive campsites at Cathedral Campground,care,38.4746,-111.3673,0,6,['Limited Development Campground'],0.0,84775,Torrey
474,B59E5DFB-3738-4986-96AD-648FE6A34ABE,Primitive campsites at Cedar Mesa Campground,care,38.0073,-111.0846,0,5,['Limited Development Campground'],0.0,84775,Torrey
475,1B6C3E06-37FE-4725-A042-8FE3ECBAB2CD,Prince William Forest RV Campground,prwi,38.603929,-77.350905,0,0,[],65.0,22172,Triangle
476,81DE0EE8-2328-4F98-A59D-CF41B00BC6BD,Pulltite Campground,ozar,37.3394667448,-91.4653730395,34,20,['Developed Campground'],20.0,65466,Eminence
477,37E012F8-43AE-4145-A8F1-BFA6BBD7332E,Purple Point Campground,noca,48.3131,-120.6581,6,0,['Limited Development Campground'],20.0,,
478,B1D9FE14-0809-4759-BD6D-03B98FEAA7F1,Purslane Run Hiker-Biker Campsite,choh,39.535244000000006,-78.46414900000002,0,1,['Primitive Camping Areas'],0.0,21740,Hagerstown
479,2EB16A75-677B-4AF6-9237-A6285BE18962,Quartz Creek,glac,48.7226099101896,-114.2242732955342,0,7,['Primitive Camping Areas'],10.0,59936,West Glacier
480,E4F0BEC0-D410-41AA-902D-41A539DEA564,Queets Campground,olym,47.6259946274311,-124.017776901915,0,20,[],15.0,98362,Port Angeles
481,7AFE0D29-866B-4025-A403-3BCE20E4CF32,Rainbow Park Campground,dino,40.4956930727,-109.174431587,0,4,['Limited Development Campground'],6.0,84035,Jensen
482,4D753D24-3797-45AA-976C-8419EA35B585,Red Creek Campground,cure,38.4793732438395,-107.231989784489,1,1,['Limited Development Campground'],16.0,,
483,D182E1F7-4066-45D4-AB4F-9C7E3F9E509C,Riley Creek,dena,63.733359835872776,-148.8940189729629,127,20,['Limited Development Campground'],0.0,99755,Denali Park
484,2940AF6F-D2F2-4AEE-91E3-1D0DDDA7B84B,Rio Grande Village Campground,bibe,29.1801945038,-102.955634488,93,0,['Developed Campground'],16.0,,
485,6134A1E6-4A8B-473E-9FA5-7DAEEAA3FD14,Rio Grande Village RV,bibe,29.1831689600897,-102.963812137708,25,0,['Developed Campground'],36.0,,
486,02A81AB4-ECCC-4FA1-9A62-1769B1D3850C,Rising Sun,glac,48.6945321731,-113.522684368,0,84,['Developed Campground'],20.0,59936,West Glacier
487,F8CE676C-E77D-4E75-980C-DE468E740CD0,River Camping,dewa,41.07058260065715,-75.01696269925203,62,0,[],16.0,,
488,0B61F802-F8D6-46D0-9A2C-708177036C95,Rivers Bend Group Campground,dewa,41.09611810044584,-74.96663249980776,5,0,['Primitive Camping Areas'],70.0,07881,Walpack Township
489,E6330478-44B8-4112-A944-5B146F5BD0FC,Rob Hill Campground,goga,37.79639211582919,-122.47605945914512,0,0,[],92.0,,
490,C44D4A8E-8C95-4360-BEC8-0C53C6BA4D35,Rock Creek Campground,obed,36.06963726622717,-84.66287612915039,11,0,['Limited Development Campground'],10.0,,
491,9E82C5FE-EB28-41E1-B522-BD593426BE2C,Rock Creek Campground,chic,34.4980236115,-96.9861506941,1,99,[],14.0,,
492,98A4D3E0-4207-4FAC-9B55-FB9942E063FF,Rock Harbor Campground,isro,48.14543517120799,-88.48932435367544,3,20,['Developed Campground'],0.0,49931,Houghton
493,0158C072-F1F3-4904-98F2-9994BF2F116A,Rocky Knob Campground,blri,36.8129880454,-80.349391372,57,49,['Developed Campground'],20.0,24091,Floyd
494,0B3A9971-2BAE-444E-85C1-095D72B7E65F,"Rocky Springs Campground, Milepost 54.8",natr,32.08743114913807,-90.79884007702437,0,22,['Limited Development Campground'],0.0,39086,Hermanville
495,2DD0D227-A228-41ED-A2FF-E52FFB3434EB,Rosita Flats,lamr,35.3647,-101.24451,0,75,['Primitive Camping Areas'],0.0,,
496,5D9FE77F-9C30-4B0C-A0F6-CD60E86B38FB,Rough Canyon Campground,amis,29.573599,-100.97746,0,4,['Limited Development Campground'],6.0,,
497,C5E40A77-D82E-4B36-8E69-444ED825F332,Round Spring Campground,ozar,37.2795173,-91.4068743,65,65,['Developed Campground'],30.0,65466,Eminence
498,A2C6CBD3-2490-40A8-853F-808EFD9C8B0D,Roundup Group Horse Camp,thro,47.0069444,-103.5055556,1,0,['Limited Development Campground'],40.0,,
499,150AF6E6-881A-4420-B535-7B31E3905549,Rush Campground,buff,36.1227472999,-92.5504511998,0,12,['Limited Development Campground'],16.0,72687,Yellville
500,F08972F9-3943-4003-8499-B0B2EA41A1C7,Ryan Campground,jotr,33.9830583394153,-116.154390354172,31,0,['Limited Development Campground'],20.0,92277,Twentynine Palms
501,B64B25ED-E087-4E45-BCF7-52A7D494CB18,Saddlehorn Campground,colm,39.10560328979322,-108.73257527355514,51,29,['Limited Development Campground'],22.0,81521,Fruita
502,2925BA89-CCF3-440F-B987-105578F89025,Sage Creek Campground,badl,43.893146,-102.414254,0,0,['Primitive Camping Areas'],0.0,57790,Wall
503,8E2A7F5B-FD6E-4367-B2E8-CA5C41758EED,Saline Valley Campground (Primitive),deva,36.8056,-117.7738,0,10,['Primitive Camping Areas'],0.0,,
504,02998E8A-00C5-4873-A437-A0DD07B4F758,San Miguel Island Campground,chis,34.0407937961,-120.349462009,9,0,['Designated Primitive Campsites'],15.0,93001,San Miguel Island
505,225E6D27-6AA8-42EE-AE4E-E6C85DE8A8C9,San Pedro Campground,amis,29.46768229853263,-100.95197435103285,1,40,['Limited Development Campground'],6.0,,
506,1FCF67D3-6986-494F-8031-CE45E1B33796,Sanctuary River,dena,63.72255876395471,-149.47374843040546,0,7,['Primitive Camping Areas'],24.75,99755,Denali Park
507,5C7C13D2-AF27-47FD-96BE-3800E9D60162,Sandbank Stream Campground,kaww,45.862757263787714,-68.67453987014596,0,3,['Limited Development Campground'],0.0,04765,Patten
508,44ECF5C9-C37D-478C-89A7-0A2ED81162B3,Sandy Hook Camp Ground,gate,40.4500495,-73.9950964,20,0,[],30.0,,
509,41B38315-53CC-489C-B69D-11DA7878E491,Sanford Yake Campground,lamr,35.413937,-101.333084,0,51,[],,,
510,9AF9B28F-F268-4833-9DB5-C7657918720B,Santa Barbara Island Campground,chis,33.4800017206,-119.029461163,10,0,['Designated Primitive Campsites'],15.0,93001,Santa Barbara Island
511,6DAE08E9-80F7-4112-8957-F19B964DAC4E,Santa Cruz Island Del Norte Backcountry Campground,chis,34.0110749692,-119.66034054,4,0,['Designated Primitive Campsites'],15.0,93001,Santa Cruz Island
512,574C1E8C-3085-4B3C-A3BE-B24F73B0C685,Santa Cruz Island Scorpion Canyon Campground,chis,34.0480064918,-119.56112541,31,0,['Primitive Camping Areas'],15.0,93001,Santa Cruz Island
513,CC099758-3DE8-4E5A-9C52-892D0F79755F,Santa Rosa Island Backcountry Beach Camping,chis,33.885295509365314,-120.11494221408148,30,0,['Primitive Camping Areas'],10.0,93001,Santa Rosa Island
514,413E7820-D6FA-4C05-933A-FC3E3D6282DC,Santa Rosa Island Campground,chis,33.9918639133255,-120.047413236541,15,0,['Primitive Camping Areas'],15.0,93001,Santa Rosa Island
515,13674F30-F2B4-4254-BD42-036039834FA0,Savage River,dena,63.7153041825,-149.261655331,33,0,['Limited Development Campground'],49.0,99755,Denali Park
516,B2B52195-15AB-4E9E-B441-0694F4193585,Schoodic Woods Campground,acad,44.3800630004,-68.0665938,89,0,['Developed Campground'],22.0,04693,Winter Harbor
517,81E44F0C-24B0-4B53-B526-9F66E46E7299,Sea Camp Campground,cuis,30.7636395998859,-81.4637252995094,16,0,[],22.0,,
518,B530C7AD-249F-4632-B78F-3CE8C9F3DBDA,Seawall Campground,acad,44.2415646998274,-68.3051438998646,202,0,['Developed Campground'],30.0,04679,Southwest Harbor
519,3322DBC8-A9D9-4C2A-9F79-67AA12670789,Sentinel Campground,seki,36.79032772286891,-118.6720361911914,82,0,['Developed Campground'],28.0,93633,Kings Canyon National Park
520,C72EDEA2-FA0E-422B-A32A-440F6C48937B,Sevenmile Creek Group Backpacking Site,piro,46.61946398113322,-86.25810096766202,1,0,[],5.0,,
521,4C464BE7-AA33-4E3F-BBF8-C731A4BC35D6,Sevenmile Creek Individual Backpacking Sites,piro,46.619268,-86.258742,5,0,[],5.0,,
522,9DC67D93-1C46-4A11-99F1-7F66DDC9F78E,Sheep Camp,klgo,59.6590711,-135.2678594,27,0,[],54.6,99840,Skagway
523,82A719D5-346C-476E-A819-F10D3363E351,Sheep Camp,whis,40.5998762241,-122.594808442,4,0,['Limited Development Campground'],20.0,96095,Whiskeytown
524,E7668917-5D14-4C03-9516-26E3D5A51C38,Sheep Creek Campground,seki,36.792137062471234,-118.68059669181162,111,0,['Developed Campground'],28.0,93633,Kings Canyon National Park
525,760FD8AD-0493-43CE-8D6F-C58438BD8212,Sheep Pass Group Campground,jotr,34.0000909432,-116.120500649,6,0,['Limited Development Campground'],50.0,92277,Twentynine Palms
526,7398124D-9099-4D3B-9B90-EA82EE919960,Shumard Canyon Wilderness Campground,gumo,31.8887274040177,-104.887056599334,5,0,['Designated Primitive Campsites'],6.0,,
527,67AC9C0C-E0E8-406F-88D2-EF0BD3FC471D,Signal Mountain Campground,grte,43.8414780508,-110.613486984,81,0,['Developed Campground'],54.0,83013,Moran
528,5FEDA142-5FE2-4F88-92A4-951C1C78EEBE,Siskiwit Bay Campground,isro,47.89044497047868,-88.99876148310005,3,6,['Limited Development Campground'],0.0,49931,Houghton
529,8F3F1AE3-1B25-4E83-9662-C76E3EF0A06A,Sky Campground,pore,38.03991510955071,-122.82882744007328,11,1,['Designated Primitive Campsites'],30.0,94956,Point Reyes Station
530,827FE6FC-C9A3-4543-93A5-F3150E009DDF,Slough Creek Campground,yell,44.94884664880159,-110.30687918305055,16,0,['Limited Development Campground'],20.0,82190,Yellowstone National Park
531,5EC50DAF-A871-466C-80B6-9729BDBF090B,Smokemont Campground,grsm,35.55645004606256,-83.31162547281389,142,0,['Developed Campground'],30.0,28719,Cherokee
532,30033AFC-D90E-4B30-BDFC-6495D2B9CB64,Smokemont Group Campground,grsm,35.55980784571487,-83.31280157335709,3,0,[],,37738,Gatlinburg
533,5541512A-EAA8-472F-9B88-2435CCD0087F,Smoky Mountain Campground,ciro,42.0755503036454,-113.651634013004,38,38,['Developed Campground'],28.0,83312,Almo
534,A512F2E3-3925-43C5-9743-6B2A9B782DDA,Snag Cove Campground,laro,48.73370742593288,-118.06041809396396,9,0,['Limited Development Campground'],23.0,99141,Kettle Falls
535,36B920F7-7D13-4D94-9129-E9701FE02DFB,Snake Creek Primitive Campgrounds,grba,38.925381,-114.251512,0,12,['Designated Primitive Campsites'],0.0,,
536,CFA62A52-1B27-4211-803E-07FFD2CBF0B8,Sorrel Ridge Hiker-Biker Campsite,choh,39.57169900000001,-78.45321300000002,0,1,['Primitive Camping Areas'],0.0,21740,Hagerstown
537,061815D1-A285-4DF5-9079-32F6B4990CF5,South Beach Campground,olym,47.5660233967878,-124.361387859395,0,55,[],15.0,98362,Port Angeles
538,BC2D51FF-DE4E-407C-86B3-3470BE11BBAF,South Campground,zion,37.20374259928453,-112.98419155753884,117,0,['Developed Campground'],20.0,,
539,AF84F9D4-0115-4F06-9D20-8108F2CF44E2,South Core Banks -- Beach camping,calo,34.76055561111111,-76.41222219444445,0,0,['Primitive Camping Areas'],0.0,28524,Great Island
540,E8221D31-0B2B-4606-9061-1F91794AD45A,South Fork Campground,seki,36.34998442726772,-118.76546982357765,0,10,['Primitive Camping Areas'],6.0,93271,Sequoia National Park
541,E39D6E00-78C0-445C-BBDB-EF9D9CD25BE2,South Lake Desor Campground,isro,47.97068609895933,-88.97153792382892,3,7,['Primitive Camping Areas'],0.0,49931,Houghton
542,1E5A64AC-1AA7-43EA-88DB-87DCE1DA6C11,South Rim Campground,blca,38.54381032355281,-107.689424061934,74,14,['Limited Development Campground'],16.0,81401,Montrose
543,2FBEED6C-9CD6-4DBE-A532-5F73F4B4A361,Southwest Walk-In Campground,lavo,40.4366004217,-121.532640953,0,21,['Developed Campground'],16.0,96063,Mineral
544,8E2351CD-649C-41C3-B1EA-5EDE58F33CDD,Split Mountain Group Campground,dino,40.4405279561,-109.252312611,4,0,['Developed Campground'],40.0,84035,Jensen
545,2ABC98CE-A9E8-438C-8BDA-2935B0224BB4,Sprague Creek Campground,glac,48.6056174161,-113.885413396,25,0,['Developed Campground'],23.0,59936,West Glacier
546,94A86C9F-730D-42C1-BAD9-DCA321B9E3E2,Spring Canyon Campground,laro,47.933040826786495,-118.94004952739895,68,0,['Limited Development Campground'],23.0,99133,Grand Coulee
547,45092D7D-C58F-41C1-BD94-FB0CAA127E53,Spring Canyon Group Sites,laro,47.934625,-118.94087,2,0,['Limited Development Campground'],55.0,99133,Grand Coulee
548,517BA74F-FFC6-4B85-AF59-0DF4FBF65899,Spring Creek Campground,buff,36.0299778999,-92.5844677011,0,12,['Limited Development Campground'],0.0,72639,Harriet
549,4A654434-3AE1-449D-BD18-DD1C98688685,Spring Gap Campground,choh,39.56484433746176,-78.71788171349304,14,0,[],40.0,,
550,8FFC1412-19CB-4AE7-9860-2BBC36799440,Spud Rock Spring,sagu,32.204179,-110.532126,0,0,[],,85730,Tucson
551,BB3E9361-0E41-4CF7-ADCC-AA19234877FD,Spur 406 Campground,amis,29.550551581798967,-101.02043723006028,0,6,['Limited Development Campground'],6.0,,
552,E4607DC5-8154-4BE3-989D-66FAE589B686,St. Mary,glac,48.751679033,-113.442405203,148,0,['Developed Campground'],10.0,59936,West Glacier
553,454AA69A-21A7-4825-8240-C47CE1422934,Stafford Beach Campground,cuis,30.80667,-81.45139,10,0,[],12.0,,
554,B4603AC8-E7B9-46B2-B717-A8C8183562F8,Stair Falls Campsite,kaww,46.0872701025,-68.7779046814,0,1,[],0.0,,
555,368E0896-3B0D-4331-8882-5FBABBEF7739,Staircase Campground,olym,47.5153731343,-123.32966806,49,49,[],20.0,98548,Hoodsport
556,694F54CD-F504-4E78-AE02-27FB53F2A48E,Stanton Creek Primitive Camping Area,glca,37.498985,-110.699117,0,0,['Designated Primitive Campsites'],12.0,00000,Lake Powell
557,C8AA0A50-B50A-44C4-8535-84277F7160DA,Station Camp Campground,biso,36.5458497459104,-84.6352172739667,28,0,['Developed Campground'],28.0,37841,Oneida
558,3EA23346-5C4D-4E01-A4E0-748033E92446,Steel Creek Campground,buff,36.0400288995,-93.3463188996,19,21,['Developed Campground'],20.0,72742,Ponca
559,103C0AB5-429C-4AF9-AEC1-B645228FD967,Stevens Creek Campground,cure,38.48692337619382,-107.09112479936186,0,54,['Developed Campground'],16.0,,
560,010134D2-1B0F-4A1E-85FF-53137A8996CF,Stickpile Hill Hiker-Biker Campsite,choh,39.58359899999999,-78.397693,0,1,['Primitive Camping Areas'],0.0,21766,Little Orleans
561,A8E8F0C6-9CF3-4E0A-AD89-A8C23990B1E2,Stone Cliff,neri,37.93304470057407,-81.0629900700327,0,7,['Primitive Camping Areas'],0.0,25963,Thurmond
562,F3361651-FFA0-4671-B15E-FF496B65EA98,Stovepipe Wells Campground,deva,36.6066434019,-117.147762489,0,190,['Limited Development Campground'],14.0,92328,Stovepipe Wells
563,E641DC39-3D00-4AFB-8E7E-EFDFE9433AB5,Summit Lake North Campground,lavo,40.4946207961,-121.424949424,46,0,[],24.0,96063,Mineral
564,D7B03A9E-7B8F-4515-9F1A-B315CB260FC5,Summit Lake South Campground,lavo,40.4904121913623,-121.424648255834,49,0,['Developed Campground'],22.0,96063,Mineral
565,1C8ED3AF-8ABC-478A-A5AB-C8BB7098431E,Sunset Campground,deva,36.4572874697,-116.861919944,0,230,['Developed Campground'],14.0,92328,Furnace Creek
566,21432CAA-2722-40B3-A56B-C7F90A8F1467,Sunset Campground,seki,36.737368435773625,-118.96518028946252,158,0,['Developed Campground'],28.0,93633,Grant Grove
567,99CA90B7-E669-41EE-8744-2BBF8215C2A8,Sunset Campground,brca,37.6222868282,-112.174839007,3,98,['Developed Campground'],20.0,84764-0201,Bryce
568,D60009AE-31AB-4905-B182-6F5D6D11742D,Sunset View Campground,nava,36.6725214798,-110.542427983,0,31,[],,86054,Shonto
569,55615849-4767-4B24-81BA-F9D651BDDE7F,Swains Lock Hiker-Biker Campsite,choh,39.03100200000001,-77.244579,0,5,['Limited Development Campground'],0.0,20854,Potomac
570,88397D32-BCEE-494E-8305-3BB22143019B,Tamarack Flat Campground,yose,37.7517175326,-119.736234028,52,0,['Limited Development Campground'],24.0,,
571,A3196D33-288F-4484-A075-33B8D2695937,Tejas Wilderness Campground,gumo,31.9368597503931,-104.850488488205,5,0,['Designated Primitive Campsites'],6.0,,
572,6C239EBB-CDA7-4D9E-8AE0-D31446911917,Teklanika River,dena,63.6704983524783,-149.580973783265,53,0,['Limited Development Campground'],40.0,99755,Denali Park
573,3A3A571D-14D7-4939-91A2-026756CFC2A7,Temple Bar Campground (Lake Mead),lake,36.03031828993541,-114.32485227007857,0,0,[],20.0,89005,Boulder City
574,D746FA26-C749-405F-856B-07F482EF7CC2,Temple Bar RV Park (Lake Mead),lake,36.03413715620238,-114.3227928422482,0,0,[],,,
575,5730203B-95D6-4866-91EE-09D3B2107D1B,Texas Springs Campground,deva,36.4600746963,-116.857302043,0,92,['Developed Campground'],16.0,92328,Furnace Creek
576,81FD44D4-DA33-4E58-A317-3CAA2573EBD8,Thayer Campground,neri,37.90172933750409,-81.03301777594444,0,4,['Primitive Camping Areas'],0.0,25936,Thurmond
577,C06B2E84-8426-4696-A511-18B171465F1B,The Colonies RV and Travel Park,fomr,37.022068,-76.298918,47,5,[],,23651,Fort Monroe
578,73BA2645-DCEB-49C6-B3B6-7056FC1FD734,The Needles Campground,cany,38.1465958314,-109.801216334,11,14,['Limited Development Campground'],20.0,84532,Moab
579,EC2CFFFC-1EF2-4D95-B812-699AEB0DBEF5,The Point Campground,chic,34.4595144058,-97.019805796,17,38,[],16.0,,
580,DF55B96A-D2A8-4DF7-8D54-75BD36C266E2,Thorndike Campground (Primitive),deva,36.236917,-117.072172,0,6,['Primitive Camping Areas'],0.0,92328,Death Valley
581,1E8F227A-243A-4171-A9CC-8320471896C2,Three Mile Campground,isro,48.12385213393805,-88.52961948526877,3,12,['Limited Development Campground'],0.0,49931,Houghton
582,F7965B87-3035-49D4-B55A-D55D6CAD0C93,Timber Creek Campground,romo,40.379225136469785,-105.85275135737628,98,0,['Developed Campground'],35.0,80447,Grand Lake
583,7EAD356B-38CC-48FC-8139-8729BC4CC5F1,Todd Harbor Campground,isro,48.05080649877427,-88.82111715996166,3,6,['Limited Development Campground'],0.0,49931,Houghton
584,18007353-02EB-4352-A8A3-08E39A1A5D8F,Tomales Bay Boat-in Camping,pore,38.163318,-122.915392,20,0,['Primitive Camping Areas'],30.0,94956,Point Reyes Station
585,124FB583-CC05-4366-9644-EDA43BF6B75B,Tookers Island Campground,isro,48.12939102951485,-88.5032933491924,0,2,['Limited Development Campground'],0.0,49931,Houghton
586,6CB8E14E-8C58-414A-A764-CB117EB34B8C,Tower Fall Campground,yell,44.88954984834864,-110.3894758833328,31,0,['Limited Development Campground'],20.0,82190,Yellowstone National Park
587,93F1B7C1-041B-4F7B-8E75-D0C35CA6CAE2,Town Creek Hiker-Biker Campsite,choh,39.52446099999999,-78.538643,0,1,['Primitive Camping Areas'],0.0,21740,Hagerstown
588,DF0F45FB-FEE4-47A9-ACD4-63E3DC9BF9DA,Trailer Village RV Park - South Rim,grca,36.052812,-112.115001,123,0,['Developed Campground'],71.0,86023,Grand Canyon
589,DF092FA4-F3AB-4BC7-91B3-DB65FB71114B,Trappers Lake Group Backpacking Site,piro,46.5876435919,-86.3154888155,1,0,[],5.0,,
590,B1FD9610-9535-46B7-901A-5B230DBAC3E5,Trappers Lake Individual Backpacking Sites,piro,46.586517,-86.316522,5,0,[],5.0,,
591,793AAB2C-885E-44F7-A0A1-D64B37291338,Tuolumne Meadows Campground,yose,37.8744752916,-119.353650884,148,156,['Developed Campground'],36.0,,
592,456366E0-A589-4C3A-8468-15CAAC114C0B,Turkey Run Ridge Group Campground,prwi,38.58160140298197,-77.3727473440166,9,0,['Developed Campground'],65.0,22172,Triangle
593,6003817A-3C71-4406-A59E-ECB38F3AE724,Turtle Run Hiker-Biker Campsite,choh,39.13928799999999,-77.51567299999999,0,1,['Designated Primitive Campsites'],0.0,20837,Poolesville
594,8F9F7BD4-CA1C-42DB-948A-B3CABF750037,Twelvemile Beach Campground,piro,46.6408,-86.21583,36,0,['Limited Development Campground'],25.0,49839,Grand Marais
595,8DF34653-E2E5-4716-A58E-8856AC14C242,Twin Peaks Campground,orpi,31.940681081217072,-112.81094174286494,208,0,['Developed Campground'],20.0,85321,Ajo
596,3A770067-D79E-413F-AF38-D879707B79B6,Two Medicine,glac,48.492114971,-113.36407124,101,0,['Developed Campground'],20.0,59936,West Glacier
597,0EDCA7B8-76C4-4D1B-8B8A-F9549DCC256D,Two Rivers Campground,ozar,37.189929,-91.276297,2,20,['Limited Development Campground'],20.0,65466,Eminence
598,DC5B8982-C3B5-40A4-B5C1-BE320C39F637,Tyler Bend Campground,buff,35.9868835993,-92.7595278001,22,20,['Developed Campground'],20.0,72675,St. Joe
599,EFA96348-96DA-4AC5-AED7-78C4F84C6512,Upper East Branch Campsite,kaww,46.113820001804086,-68.79790999965547,0,1,[],0.0,04765,Patten
600,F872CA6C-B7FA-405C-BDB6-81D75972C9F2,Upper Goodell Creek Group Campsite,noca,48.683276868130136,-121.27077652544762,1,0,['Limited Development Campground'],75.0,98284,Sedro-Woolley
601,BE18116D-35DF-4187-8B8C-D86810C17899,Upper Lehman Campground,grba,39.0136,-114.24776,23,0,['Developed Campground'],20.0,,
602,9D5B57D0-793A-4C2B-B620-5B561EDFC031,Upper Pines Campground,yose,37.7384294727,-119.564411225,235,0,['Developed Campground'],36.0,95389,Yosemite
603,3AD1C657-F432-4C3E-9409-5F0FB6A4E8BD,Upper Scorpion Campground,gicl,33.23049878845756,-108.2609959291612,0,10,['Limited Development Campground'],0.0,,
604,023C3AE0-CA2D-42B0-8F0A-A3106336BFAA,Valley View Group Campground,dewa,41.11561910031742,-74.96377570114987,5,0,['Primitive Camping Areas'],,18324,Bushkill
605,CD57926C-D569-489B-8A4B-F528D026DE75,Village Campground - North Manitou Island,slbe,45.1281213,-85.9775979,0,8,['Designated Primitive Campsites'],10.0,49630,Empire
606,97FC7F59-6472-4AB6-A411-A7E6874680BD,Wahweap Campground & RV Park,glca,36.9967066553,-111.499386112,251,36,['Developed Campground'],,86040,Page
607,4072160F-820D-48BC-9E1A-84B9012F1288,War Ridge/Backus Mountain Campground,neri,37.84526058608828,-80.98518203383988,0,8,['Primitive Camping Areas'],0.0,25907,Prince
608,690C7677-FD55-430A-BB36-85410822EB5F,Warner Valley Campground,lavo,40.4428300456,-121.394565261,8,9,['Limited Development Campground'],21.0,96020,Chester
609,06226BC6-9AD8-40D8-A9B0-35997490B33D,Washington Creek Campground,isro,47.91621695055476,-89.15457402986016,4,15,['Developed Campground'],0.0,49931,Houghton
610,2F950808-AEC8-4AF4-9B87-50BF4C1299BA,Wassataquoik Campsite,kaww,45.9329028831785,-68.7146921403937,0,1,['Designated Primitive Campsites'],0.0,,
611,6865D5F5-853C-4A07-9CF4-FC9467F37F85,Wassataquoik Lean-to,kaww,45.9328416267,-68.7155631045,0,1,['Designated Primitive Campsites'],0.0,,
612,9B6BFDE9-F02F-473C-8826-9531A937758F,Watch Hill Family Campground,fiis,40.6909163,-72.9866,28,0,['Developed Campground'],,,
613,2DEDB733-BCA8-41FF-8E0C-3E676DE620DF,Watchman Campground,zion,37.1975852245451,-112.987306895859,176,0,['Developed Campground'],30.0,,
614,F7CA3802-BD31-4C93-9C3C-A4097B955EE6,Wawona Campground,yose,37.54472065874548,-119.67274646199724,1,23,['Developed Campground'],36.0,95389,Yosemite
615,AEAC8C7C-ED2F-4B45-AA46-78829F0309D6,Wawona Horse Camp,yose,37.5394895246,-119.653288564,2,0,['Developed Campground'],50.0,,
616,7D57A961-B5E9-4312-9519-21898097AD02,Weather Station Campground - South Manitou Island,slbe,45.003301,-86.110347,3,20,['Designated Primitive Campsites'],10.0,49630,Empire
617,A0363A97-D1E8-46F8-A75E-3DF8BC93DC39,West Chickenbone Campground,isro,48.06327205490391,-88.72467586394845,3,6,['Primitive Camping Areas'],0.0,49931,Houghton
618,8EB5A87A-535B-4EDE-8475-AC63B225B1A7,Wheeler Peak Campground,grba,39.01091,-114.3044,37,0,['Developed Campground'],20.0,,
619,35E0D115-7743-49C8-9D9D-3A347BCF41CB,White Pine Backcountry Campground,slbe,44.737174,-86.08701,0,6,['Designated Primitive Campsites'],10.0,49640,Honor
620,B491535B-8883-4684-8E34-228E49D01A5C,White River Campground,mora,46.9024098268932,-121.641814850334,0,88,['Developed Campground'],20.0,98304,Ashford
621,753ADCCD-0ABC-4D9A-B5E4-BB37572F196E,White Rock Hiker-Biker Campsite,choh,39.67753999999999,-78.20979399999999,0,1,['Designated Primitive Campsites'],0.0,21750,Hancock
622,F825CA55-5923-48FE-B11D-CD55B5F53B88,White Tank Campground,jotr,33.985738,-116.0166743,0,15,['Limited Development Campground'],15.0,92277,Twentynine Palms
623,2B396150-CB50-4013-AAF2-B862D4FA4823,White Wolf Campground,yose,37.870349714937376,-119.64834665998012,74,0,['Developed Campground'],30.0,,
624,938474DC-C66E-4577-A107-0628E0C8E4C0,Wildcat Campground,pore,37.97015310679054,-122.79068822618684,7,1,['Designated Primitive Campsites'],30.0,94956,Point Reyes Station
625,833AF1FD-97F4-4CBF-AB54-5963E5A91382,Wilderness Cabins,hale,20.717921296462112,-156.14203614585165,3,0,['Designated Primitive Campsites'],30.0,96790,Kula
626,60A9F911-9C8C-4B0E-91F0-DA9803B46794,Wilderness Ridge Wilderness Campground,gumo,31.99784003435671,-104.77031431515502,5,0,[],6.0,,
627,87CACD0F-E22C-4DED-9CA5-B6E1F08857CE,Wilderness Road Campground,cuga,36.604102064574086,-83.63260934580455,154,0,[],24.0,24248,Ewing
628,23161602-35FD-4E07-BD8C-8AF7012423A0,Wilderness Tent Sites,hale,20.739517202433813,-156.21861978744005,10,0,['Designated Primitive Campsites'],30.0,96790,Kula
629,322E9FDF-A46A-4C15-A726-99DA7113764A,Wildrose Campground,deva,36.2659441986,-117.190333865,0,23,['Primitive Camping Areas'],0.0,92328,Death Valley
630,2CDFC89A-7CC5-4601-97BF-E8F86EB9E3C1,Willow Beach Campground (Lake Mohave),lake,35.87336335576787,-114.6521633431546,0,0,[],,,
631,E8C3E388-D8B0-49DD-B44D-EAFA3009A380,Willow Beach RV Park,lake,35.87336335576787,-114.6521633431546,0,0,[],,,
632,D4F65C49-97B3-46B3-93DD-3B13430C2608,Wonder Lake,dena,63.45398217678673,-150.86162174852063,28,0,['Limited Development Campground'],8.0,99755,Denali Park
633,A1EAF11C-75D8-484B-8BB2-985F61951BAD,Wood Lake Campground,isro,48.00853512034862,-88.73960933467993,0,3,['Primitive Camping Areas'],0.0,49931,Houghton
634,B94FE8B9-2EF1-4464-A2E1-5803C9AE7648,Woolum,buff,35.9703114997,-92.8805197992,0,0,['Primitive Camping Areas'],0.0,72675,St. Joe
635,BF1E54D4-20CA-48F4-85ED-DBE673A14696,Worthington State Forest Campground,dewa,41.01296000001025,-75.08484440122811,78,0,[],,07832,Columbia
636,CCDC908D-4B98-46C9-83BB-AFE6EF2E9869,Yankee Paradise Wilderness Campsite,cuis,30.8492,-81.4478,4,0,['Designated Primitive Campsites'],9.0,,
637,025AFF52-097D-4754-8952-5A554386CE62,Yosemite Creek Campground,yose,37.82629400382813,-119.59833337699251,75,0,['Limited Development Campground'],24.0,,
